{"year":"2017","data":{"gkz_40100":{"zip":4020,"name":"Linz","category":"1A","nanny":"Ja","creche":"Ja","afternoon":"Ja","nonstop":"Ja","open":"Mo,Di,Mi,Do,Fr: 6:00 - 20:00","lunch":"Ja","info":"Unter-Dreij&auml;hrige ganzj&auml;hrig ge&ouml;ffnet<br />Kindergarten ganzj&auml;hrig ge&ouml;ffnet<br />","summer":"Ja"},"gkz_40200":{"zip":4400,"name":"Steyr","category":"1A","nanny":"Ja","creche":"Ja","afternoon":"Ja","nonstop":"Ja","open":"Mo,Di,Mi,Do,Fr: 6:00 - 18:00","lunch":"Ja","info":"Unter-Dreij&auml;hrige ganzj&auml;hrig ge&ouml;ffnet<br />Kindergarten ganzj&auml;hrig ge&ouml;ffnet<br />","summer":"Ja"},"gkz_40300":{"zip":4600,"name":"Wels","category":"1A","nanny":"Ja","creche":"Ja","afternoon":"Ja","nonstop":"Ja","open":"Mo,Di,Mi,Do,Fr: 6:30 - 18:00","lunch":"Ja","info":"Unter-Dreij&auml;hrige ganzj&auml;hrig ge&ouml;ffnet<br />Kindergarten ganzj&auml;hrig ge&ouml;ffnet<br />","summer":"Ja"},"gkz_40401":{"zip":4950,"name":"Altheim","category":"A","nanny":"Ja","creche":"Ja","afternoon":"Ja","nonstop":"Ja","open":"Mo,Di,Mi,Do: 7:00 - 16:00; Fr: 7:00 - 13:30","lunch":"Ja","info":"Journaldienst VS-Kinder Semester-und Osterferien<br />","summer":"Ja"},"gkz_40402":{"zip":5252,"name":"Aspach","category":"1A","nanny":"Ja","creche":"Ja","afternoon":"Ja","nonstop":"Ja","open":"Mo,Di,Mi,Do: 7:00 - 17:00; Fr: 7:00 - 12:30","lunch":"Ja","info":"","summer":"Ja"},"gkz_40403":{"zip":5224,"name":"Auerbach","category":"D","nanny":"Ja","creche":"Nein","afternoon":"Nein","nonstop":"Nein","open":"Mo,Di,Mi,Do: 7:15 - 15:00; Fr: 7:15 - 13:00","lunch":"Ja","info":"Kooperation Kindergarten mit Jeging<br />","summer":"Ja"},"gkz_40404":{"zip":5280,"name":"Braunau a.I.","category":"1A","nanny":"Ja","creche":"Ja","afternoon":"Ja","nonstop":"Ja","open":"Mo,Di,Mi,Do: 6:30 - 18:00; Fr: 6:30 - 16:00","lunch":"Ja","info":"","summer":"Ja"},"gkz_40405":{"zip":5274,"name":"Burgkirchen","category":"A","nanny":"Ja","creche":"Ja","afternoon":"Ja","nonstop":"Ja","open":"Mo,Di: 7:00 - 16:00; Mi,Do: 7:00 - 15:00; Fr: 7:00 - 13:00","lunch":"Ja","info":"Kooperation Unter-Dreij&auml;hrige mit Mauerkirchen; Journaldienst Unter-Dreij&auml;hrige (ausgenommen Sommerferien)<br />Journaldienst Kindergarten (ausgenommen Sommerferien)<br />","summer":"Nein"},"gkz_40406":{"zip":5142,"name":"Eggelsberg","category":"A","nanny":"Ja","creche":"Ja","afternoon":"Ja","nonstop":"Ja","open":"Mo,Di,Mi,Do: 6:45 - 16:00; Fr: 6:45 - 13:00","lunch":"Ja","info":"","summer":"Nein"},"gkz_40407":{"zip":5143,"name":"Feldkirchen b.M.","category":"1A","nanny":"Ja","creche":"Ja","afternoon":"Ja","nonstop":"Ja","open":"Mo,Di,Mi,Do,Fr: 7:30 - 17:00","lunch":"Ja","info":"","summer":"Ja"},"gkz_40408":{"zip":5131,"name":"Franking","category":"A","nanny":"Nein","creche":"Ja","afternoon":"Ja","nonstop":"Ja","open":"Mo,Di,Mi,Do: 7:15 - 16:00; Fr: 7:15 - 13:00","lunch":"Ja","info":"","summer":"Nein"},"gkz_40409":{"zip":5132,"name":"Geretsberg","category":"A","nanny":"Ja","creche":"Ja","afternoon":"Ja","nonstop":"Ja","open":"Mo,Di,Mi,Do: 7:15 - 16:00; Fr: 7:15 - 13:00","lunch":"Ja","info":"Kooperation Unter-Dreij&auml;hrige mit Franking und Haigermoos<br />Kooperation Kindergarten mit Franking  <br />","summer":"Nein"},"gkz_40410":{"zip":5133,"name":"Gilgenberg a.W.","category":"D","nanny":"Ja","creche":"Ja","afternoon":"Nein","nonstop":"Nein","open":"Mo,Mi,Do,Fr: 7:00 - 13:00; Di: 7:00 - 16:30","lunch":"Nein","info":"Mittagessen : Di<br />","summer":"Ja"},"gkz_40411":{"zip":5120,"name":"Haigermoos","category":"A","nanny":"Nein","creche":"Ja","afternoon":"Ja","nonstop":"Ja","open":"Mo,Di,Mi,Do: 7:30 - 16:00; Fr: 7:30 - 13:00","lunch":"Ja","info":"Kooperation Unter-Dreij&auml;hrige mit Franking<br />Kooperation Kindergarten mit Franking <br />Kooperation NM-Betreuung VS-Kinder mit Franking <br />","summer":"Nein"},"gkz_40412":{"zip":5144,"name":"Handenberg","category":"B","nanny":"Nein","creche":"Ja","afternoon":"Nein","nonstop":"Ja","open":"Mo,Di,Mi,Do: 7:00 - 15:00; Fr: 7:00 - 13:00","lunch":"Ja","info":"","summer":"Nein"},"gkz_40413":{"zip":5261,"name":"Helpfau-Uttendorf","category":"A","nanny":"Ja","creche":"Ja","afternoon":"Ja","nonstop":"Ja","open":"Mo,Di,Mi,Do: 7:00 - 16:00; Fr: 7:00 - 14:00","lunch":"Ja","info":"Kooperation Sommerbetreuung VS-Kinder mit Mauerkirchen<br />","summer":"Nein"},"gkz_40414":{"zip":5122,"name":"Hochburg-Ach","category":"A","nanny":"Ja","creche":"Ja","afternoon":"Ja","nonstop":"Ja","open":"Mo,Di,Mi,Do: 7:00 - 15:00; Fr: 7:00 - 13:30","lunch":"Ja","info":"","summer":"Nein"},"gkz_40415":{"zip":5251,"name":"HÃ¶hnhart","category":"A","nanny":"Nein","creche":"Ja","afternoon":"Ja","nonstop":"Ja","open":"Mo,Di,Mi,Do: 7:00 - 15:00; Fr: 7:00 - 12:15","lunch":"Ja","info":"Kooperation Sommerbetreuung Kindergarten mit Maria Schmolln und St. Johann a.W.<br />Kooperation Sommerbetreuung VS-Kinder mit Maria Schmolln und St. Johann a.W.<br />","summer":"Ja"},"gkz_40416":{"zip":5225,"name":"Jeging","category":"D","nanny":"Nein","creche":"Nein","afternoon":"Nein","nonstop":"Nein","open":"Mo,Di,Mi,Do: 7:15 - 15:00; Fr: 7:15 - 13:00","lunch":"Ja","info":"","summer":"Ja"},"gkz_40417":{"zip":5232,"name":"Kirchberg b.M.","category":"D","nanny":"Ja","creche":"Nein","afternoon":"Ja","nonstop":"Nein","open":"Mo,Di,Mi,Do,Fr: 7:30 - 13:15","lunch":"Nein","info":"","summer":"Nein"},"gkz_40418":{"zip":5211,"name":"Lengau","category":"A","nanny":"Ja","creche":"Ja","afternoon":"Ja","nonstop":"Ja","open":"Mo,Di,Mi,Do: 7:00 - 16:00; Fr: 7:00 - 13:00","lunch":"Ja","info":"","summer":"Ja"},"gkz_40419":{"zip":5221,"name":"Lochen a.S. ","category":"A","nanny":"Nein","creche":"Ja","afternoon":"Ja","nonstop":"Ja","open":"Mo,Mi,Do: 7:00 - 16:00; Di: 7:00 - 15:00; Fr: 7:00 - 13:00","lunch":"Ja","info":"Kooperation Sommerbetreuung Kindergarten mit Munderfing<br />","summer":"Ja"},"gkz_40420":{"zip":5241,"name":"Maria Schmolln","category":"C","nanny":"Ja","creche":"Ja","afternoon":"Nein","nonstop":"Nein","open":"Mo,Di,Do: 7:30 - 13:30; Mi: 7:30 - 15:00; Fr: 7:30 - 13:00","lunch":"Ja","info":"Kooperation Sommerbetreuung Kindergarten mit H&ouml;hnhart<br />","summer":"Ja"},"gkz_40421":{"zip":5230,"name":"Mattighofen","category":"1A","nanny":"Ja","creche":"Ja","afternoon":"Ja","nonstop":"Ja","open":"Mo,Di,Mi,Do,Fr: 6:45 - 16:30","lunch":"Ja","info":"","summer":"Nein"},"gkz_40422":{"zip":5270,"name":"Mauerkirchen","category":"A","nanny":"Ja","creche":"Ja","afternoon":"Ja","nonstop":"Ja","open":"Mo,Di,Mi,Do: 6:45 - 16:00; Fr: 6:45 - 13:15","lunch":"Ja","info":"Journaldienst Unter-Dreij&auml;hrige in der ersten J&auml;nnerwoche<br />Journaldienst Kindergarten in der ersten J&auml;nner- und Karwoche<br />","summer":"Nein"},"gkz_40423":{"zip":4962,"name":"Mining","category":"A","nanny":"Ja","creche":"Ja","afternoon":"Ja","nonstop":"Ja","open":"Mo: 7:30 - 17:00; Di,Mi,Do: 7:30 - 16:00; Fr: 7:30 - 13:00","lunch":"Ja","info":"","summer":"Nein"},"gkz_40424":{"zip":5271,"name":"Moosbach","category":"C","nanny":"Ja","creche":"Ja","afternoon":"Ja","nonstop":"Nein","open":"Mo,Fr: 7:15 - 12:30; Di,Mi,Do: 7:15 - 15:30","lunch":"Nein","info":"Kooperation Unter-Dreij&auml;hrige mit Mauerkirchen; Journaldienst Unter-Dreij&auml;hrige in der ersten J&auml;nnerwoche<br />Mittagessen: Di, Mi, Do; Journaldienst Kindergarten in der ersten J&auml;nner- und Karwoche<br />Kooperation NM-Betreuung VS-Kinder mit Mauerkirchen; Kooperation Sommerbetreuung VS-Kinder mit Mauerkirchen<br />","summer":"Ja"},"gkz_40425":{"zip":5141,"name":"Moosdorf","category":"A","nanny":"Ja","creche":"Ja","afternoon":"Ja","nonstop":"Ja","open":"Mo,Di,Mi,Do: 7:00 - 16:00; Fr: 7:00 - 14:00","lunch":"Ja","info":"","summer":"Nein"},"gkz_40426":{"zip":5222,"name":"Munderfing","category":"A","nanny":"Nein","creche":"Ja","afternoon":"Ja","nonstop":"Ja","open":"Mo,Di,Mi,Do: 7:00 - 16:00; Fr: 7:00 - 13:00","lunch":"Ja","info":"Kooperation Sommerbetreuung Kindergarten mit Lochen a.S.<br />","summer":"Ja"},"gkz_40427":{"zip":5145,"name":"Neukirchen a.d.E.","category":"A","nanny":"Ja","creche":"Ja","afternoon":"Ja","nonstop":"Ja","open":"Mo,Di,Mi,Do: 7:00 - 15:30; Fr: 7:00 - 12:30","lunch":"Ja","info":"Journaldienst Kindergarten in den Semster- und Osterferien und an Fenstertagen<br />","summer":"Ja"},"gkz_40428":{"zip":5121,"name":"Ostermiething","category":"1A","nanny":"Ja","creche":"Ja","afternoon":"Ja","nonstop":"Ja","open":"Mo,Di,Mi,Do,Fr: 6:30 - 16:00","lunch":"Ja","info":"","summer":"Nein"},"gkz_40429":{"zip":5163,"name":"Palting","category":"B","nanny":"Ja","creche":"Nein","afternoon":"Ja","nonstop":"Ja","open":"Mo,Di,Mi,Do: 7:00 - 17:00; Fr: 7:00 - 13:00","lunch":"Ja","info":"Sommerbetreuung Kindergarten 10.7. bis 19.7., 7.8. bis 30.8. (jeweils Mo bis Mi) bis 16:00 Uhr<br />","summer":"Nein"},"gkz_40430":{"zip":5166,"name":"Perwang a.G.","category":"A","nanny":"Ja","creche":"Ja","afternoon":"Ja","nonstop":"Ja","open":"Mo,Di,Mi,Do: 7:00 - 15:00; Fr: 7:00 - 14:00","lunch":"Ja","info":"","summer":"Nein"},"gkz_40431":{"zip":5223,"name":"PfaffstÃ¤tt","category":"C","nanny":"Nein","creche":"Ja","afternoon":"Ja","nonstop":"Nein","open":"Mo,Di,Do: 7:00 - 15:00; Mi,Fr: 7:00 - 13:00","lunch":"Nein","info":"Mittagessen: Mo, Di, Do<br />","summer":"Nein"},"gkz_40432":{"zip":5233,"name":"Pischelsdorf a.E.","category":"D","nanny":"Nein","creche":"Ja","afternoon":"Nein","nonstop":"Nein","open":"Mo,Di,Mi,Do,Fr: 7:00 - 13:00","lunch":"Nein","info":"","summer":"Nein"},"gkz_40433":{"zip":4951,"name":"Polling i.I.","category":"D","nanny":"Ja","creche":"Ja","afternoon":"Nein","nonstop":"Nein","open":"Mo,Di,Mi,Do,Fr: 7:00 - 13:00","lunch":"Nein","info":"NM-Betreuung VS-Kinder Mo bis Fr bis 13:00 Uhr<br />","summer":"Nein"},"gkz_40434":{"zip":5273,"name":"RoÃŸbach","category":"A","nanny":"Ja","creche":"Ja","afternoon":"Ja","nonstop":"Ja","open":"Mo,Di,Mi,Do: 7:00 - 16:15; Fr: 7:00 - 12:45","lunch":"Ja","info":"Kooperation Sommerbetreuung Unter-Dreij&auml;hrige mit Aspach, H&ouml;hnhart, St. Veit i.I.<br />Kooperation Sommerbetreuung Kindergarten mit Aspach, H&ouml;hnhart, St. Veit i.I.<br />Kooperation Sommerbetreuung VS-Kinder mit Aspach, H&ouml;hnhart, St. Veit i.I.<br />","summer":"Ja"},"gkz_40435":{"zip":5144,"name":"St. Georgen a.F.","category":"B","nanny":"Nein","creche":"Ja","afternoon":"Nein","nonstop":"Ja","open":"Mo,Di,Mi,Do: 7:00 - 15:00; Fr: 7:00 - 13:00","lunch":"Ja","info":"Kooperation Unter-Dreij&auml;hrige mit Handenberg <br />Kooperation Kindergarten mit Handenberg<br />","summer":"Nein"},"gkz_40436":{"zip":5242,"name":"St. Johann a.W.","category":"E","nanny":"Ja","creche":"Nein","afternoon":"Nein","nonstop":"Nein","open":"Mo,Di,Mi,Do,Fr: 7:00 - 13:00","lunch":"Nein","info":"Kooperation Sommerbetreuung Kindergarten mit H&ouml;hnhart<br />Kooperation Sommerbetreuung VS-Kinder mit H&ouml;hnhart<br />","summer":"Ja"},"gkz_40437":{"zip":5120,"name":"St. Pantaleon","category":"1A","nanny":"Ja","creche":"Ja","afternoon":"Ja","nonstop":"Ja","open":"Mo,Di,Mi,Do: 7:00 - 17:00; Fr: 7:00 - 15:00","lunch":"Ja","info":"Kooperation Sommerbetreuung Unter-Dreij&auml;hrige mit Sankt Georgen b.S. (Bezirk Salzburg-Umgebung)<br />Kooperation Sommerbetreuung Kindergarten mit Sankt Georgen b.S. (Bezirk Salzburg-Umgebung)<br />","summer":"Ja"},"gkz_40438":{"zip":4963,"name":"St. Peter a.H.","category":"A","nanny":"Ja","creche":"Ja","afternoon":"Ja","nonstop":"Ja","open":"Mo,Di,Mi,Do: 7:00 - 16:30; Fr: 7:00 - 13:00","lunch":"Ja","info":"","summer":"Nein"},"gkz_40439":{"zip":5121,"name":"St. Radegund","category":"D","nanny":"Nein","creche":"Nein","afternoon":"Nein","nonstop":"Nein","open":"Mo,Di,Mi,Do: 7:00 - 14:30; Fr: 7:15 - 12:30","lunch":"Ja","info":"NM-Betreuung VS-Kinder Mo bis Do bis 14:30 Uhr und Fr bis 12:30 Uhr<br />","summer":"Nein"},"gkz_40440":{"zip":5273,"name":"St. Veit i.I.","category":"A","nanny":"Ja","creche":"Ja","afternoon":"Ja","nonstop":"Ja","open":"Mo,Di,Mi,Do: 7:00 - 15:30; Fr: 7:00 - 12:15","lunch":"Ja","info":"Kooperation Sommerbetreuung Unter-Dreij&auml;hrige mit Aspach und H&ouml;hnhart<br />Kooperation Sommerbetreuung Kindergarten mit Aspach und H&ouml;hnhart<br />Kooperation Sommerbetreuung VS-Kinder mit Aspach, H&ouml;hnhart und Ro&szlig;bach<br />","summer":"Ja"},"gkz_40441":{"zip":5231,"name":"Schalchen","category":"B","nanny":"Ja","creche":"Nein","afternoon":"Ja","nonstop":"Ja","open":"Mo,Di,Mi,Do: 7:00 - 16:00; Fr: 7:00 - 14:30","lunch":"Ja","info":"","summer":"Nein"},"gkz_40442":{"zip":5134,"name":"Schwand i.I.","category":"B","nanny":"Ja","creche":"Ja","afternoon":"Nein","nonstop":"Ja","open":"Mo,Di,Mi,Do: 7:00 - 15:00; Fr: 7:00 - 13:00","lunch":"Ja","info":"Kooperation Unter-Dreij&auml;hrige mit Handenberg<br />Kooperation Kindergarten mit Handenberg<br />","summer":"Nein"},"gkz_40443":{"zip":5121,"name":"Tarsdorf","category":"A","nanny":"Ja","creche":"Ja","afternoon":"Ja","nonstop":"Ja","open":"Mo,Di,Mi,Do: 7:00 - 15:15; Fr: 7:00 - 13:00","lunch":"Ja","info":"Journaldienst Unter-Dreij&auml;hrige in den Semesterferien und an Fenstertagen<br />Journaldienst Kindergarten in den Semesterferien und an Fenstertagen<br />","summer":"Ja"},"gkz_40444":{"zip":5272,"name":"Treubach","category":"D","nanny":"Ja","creche":"Nein","afternoon":"Nein","nonstop":"Nein","open":"Mo,Di,Mi,Do: 7:15 - 15:00; Fr: 7:15 - 12:30","lunch":"Ja","info":"","summer":"Nein"},"gkz_40445":{"zip":5122,"name":"Ãœberackern","category":"D","nanny":"Nein","creche":"Nein","afternoon":"Ja","nonstop":"Nein","open":"Mo,Di,Mi,Do,Fr: 8:00 - 13:30","lunch":"Nein","info":"Kooperation NM-Betreuung VS-Kinder mit Hochburg-Ach<br />","summer":"Nein"},"gkz_40446":{"zip":4952,"name":"Weng i.I.","category":"B","nanny":"Ja","creche":"Nein","afternoon":"Ja","nonstop":"Ja","open":"Mo,Di,Mi,Do,Fr: 7:15 - 17:00","lunch":"Ja","info":"","summer":"Ja"},"gkz_40501":{"zip":4072,"name":"Alkoven","category":"1A","nanny":"Nein","creche":"Ja","afternoon":"Ja","nonstop":"Ja","open":"Mo,Di,Mi,Do: 6:45 - 17:00; Fr: 6:45 - 15:00","lunch":"Ja","info":"Journaldienst Unter-Dreij&auml;hrige in den Semesterferien und an Fenstertagen<br />Journaldienst Kindergarten in den Sommerferien und an Fenstertagen<br />Journaldienst VS-Kinder in den Semesterferien<br />","summer":"Ja"},"gkz_40502":{"zip":4082,"name":"Aschach a.d.D.","category":"B","nanny":"Nein","creche":"Nein","afternoon":"Ja","nonstop":"Ja","open":"Mo,Di,Mi,Do: 7:00 - 16:00; Fr: 7:00 - 13:00","lunch":"Ja","info":"Kooperation Sommerbetreuung VS-Kinder mit Hartkirchen<br />","summer":"Nein"},"gkz_40503":{"zip":4070,"name":"Eferding","category":"1A","nanny":"Nein","creche":"Ja","afternoon":"Ja","nonstop":"Ja","open":"Mo,Di,Mi,Do: 6:15 - 17:15; Fr: 6:15 - 16:30","lunch":"Ja","info":"Kooperation Sommerbetreuung Kindergarten mit Fraham, Hinzenbach und Pupping<br />Kooperation Sommerbetreuung VS-Kinder mit Fraham, Hinzenbach und Pupping<br />","summer":"Ja"},"gkz_40504":{"zip":4070,"name":"Fraham","category":"1A","nanny":"Ja","creche":"Ja","afternoon":"Ja","nonstop":"Ja","open":"Mo,Di,Mi,Do: 6:15 - 17:15; Fr: 6:15 - 16:30","lunch":"Ja","info":"Kooperation Unter-Dreij&auml;hrige mit Eferding; Kooperation Sommerbetreuung Unter-Dreij&auml;hrige mit Eferding, Hinzenbach und Pupping<br />Kooperation Kindergarten mit Eferding; Kooperation Sommerbetreuung Kindergarten mit Eferding, Hinzenbach und Pupping<br />Kooperation Sommerbetreuung VS-Kinder mit Eferding <br />","summer":"Ja"},"gkz_40505":{"zip":4083,"name":"Haibach o.d.D.","category":"D","nanny":"Ja","creche":"Ja","afternoon":"Nein","nonstop":"Nein","open":"Mo,Di,Mi,Do,Fr: 7:00 - 13:00","lunch":"Nein","info":"NM-Betreuung VS-Kinder Mo, Mi bis 17:00 Uhr; Sommerbetreuung VS-Kinder Mo, Di, Mi (vorraussichtlich Juli 2018)<br />","summer":"Nein"},"gkz_40506":{"zip":4081,"name":"Hartkirchen","category":"A","nanny":"Ja","creche":"Ja","afternoon":"Ja","nonstop":"Ja","open":"Mo,Di,Mi,Do: 7:00 - 16:00; Fr: 7:00 - 13:00","lunch":"Ja","info":"Journaldienst Unter-Dreij&auml;hrige (ausgenommen Sommer- und Weihnachtsferien)<br />Journaldienst Kindergarten (ausgenommen Sommer- und Weihnachtsferien)<br />Kooperation Sommerbetreuung VS-Kinder mit Aschach a.d.D.<br />","summer":"Nein"},"gkz_40507":{"zip":4070,"name":"Hinzenbach","category":"1A","nanny":"Ja","creche":"Ja","afternoon":"Ja","nonstop":"Ja","open":"Mo,Di,Mi,Do: 6:15 - 17:15; Fr: 6:15 - 16:30","lunch":"Ja","info":"Kooperation Unter-Dreij&auml;hrige mit Eferding, Fraham und Pupping  <br />Kooperation Kindergarten mit Eferding; Kooperation Sommerbetreuung Kindergarten mit Eferding, Fraham und Pupping<br />Kooperation NM- Betreuung VS-Kinder mit Eferding, Fraham und Pupping; Kooperation Sommerbetreuung VS-Kinder mit Eferding<br />","summer":"Ja"},"gkz_40508":{"zip":4731,"name":"Prambachkirchen","category":"A","nanny":"Ja","creche":"Ja","afternoon":"Ja","nonstop":"Ja","open":"Mo,Di,Mi,Do: 6:45 - 16:00; Fr: 6:45 - 13:15","lunch":"Ja","info":"","summer":"Ja"},"gkz_40509":{"zip":4070,"name":"Pupping","category":"1A","nanny":"Ja","creche":"Ja","afternoon":"Ja","nonstop":"Ja","open":"Mo,Di,Mi,Do: 6:15 - 17:15; Fr: 6:15 - 16:30","lunch":"Ja","info":"Kooperation Unter-Dreij&auml;hrige mit Eferding<br />Kooperation Kindergarten mit Eferding; Kooperation Sommerbetreuung Kindergarten mit Eferding<br />Kooperation NM-Betreuung VS-Kinder mit Eferding; Kooperation Sommerbetreuung VS-Kinder mit Eferding<br />","summer":"Ja"},"gkz_40510":{"zip":4076,"name":"St. Marienkirchen a.d.P.","category":"B","nanny":"Ja","creche":"Ja","afternoon":"Ja","nonstop":"Nein","open":"Mo,Di,Fr: 7:00 - 13:00; Mi,Do: 7:00 - 16:00","lunch":"Ja","info":"","summer":"Nein"},"gkz_40511":{"zip":4612,"name":"Scharten","category":"A","nanny":"Nein","creche":"Ja","afternoon":"Ja","nonstop":"Ja","open":"Mo,Di,Mi,Do: 7:00 - 16:30; Fr: 7:00 - 14:00","lunch":"Ja","info":"","summer":"Nein"},"gkz_40512":{"zip":4074,"name":"Stroheim","category":"D","nanny":"Ja","creche":"Nein","afternoon":"Ja","nonstop":"Nein","open":"Mo,Di,Mi,Do,Fr: 7:00 - 13:00","lunch":"Nein","info":"","summer":"Nein"},"gkz_40601":{"zip":4240,"name":"Freistadt","category":"1A","nanny":"Ja","creche":"Ja","afternoon":"Ja","nonstop":"Ja","open":"Mo,Di,Mi,Do: 7:00 - 18:00; Fr: 7:00 - 16:00","lunch":"Ja","info":"","summer":"Ja"},"gkz_40602":{"zip":4264,"name":"GrÃ¼nbach","category":"A","nanny":"Nein","creche":"Ja","afternoon":"Ja","nonstop":"Ja","open":"Mo,Di,Mi: 7:00 - 16:00; Do: 7:00 - 16:30; Fr: 7:00 - 14:00","lunch":"Ja","info":"Kooperation Sommerbetreuung Kindergarten mit Rainbach i. M. <br />","summer":"Ja"},"gkz_40603":{"zip":4293,"name":"Gutau","category":"A","nanny":"Nein","creche":"Ja","afternoon":"Ja","nonstop":"Ja","open":"Mo,Di,Mi,Do: 7:00 - 16:00; Fr: 7:00 - 13:00","lunch":"Ja","info":"","summer":"Nein"},"gkz_40604":{"zip":4232,"name":"Hagenberg i.M.","category":"1A","nanny":"Nein","creche":"Ja","afternoon":"Ja","nonstop":"Ja","open":"Mo,Di,Mi,Do: 6:45 - 17:00; Fr: 6:45 - 15:00","lunch":"Ja","info":"Kooperation Sommerbetreuung Unter-Dreij&auml;hrige mit Pregarten, Unterweitersdorf und Wartberg o.d.A. <br />Kooperation Sommerbetreuung Kindergarten mit Pregarten, Unterweitersdorf und Wartberg o.d.A.; Journaldienst Kindergarten in den Semesterferien und an 3 Tagen in den Osterferien sowie an Fenstertagen<br />","summer":"Ja"},"gkz_40605":{"zip":4242,"name":"Hirschbach i.M.","category":"C","nanny":"Ja","creche":"Nein","afternoon":"Ja","nonstop":"Nein","open":"Mo,Fr: 7:30 - 13:00; Di: 7:30 - 15:30; Mi: 7:15 - 13:00; Do: 7:15 - 15:30","lunch":"Ja","info":"Kooperation Sommerbetreuung Kindergarten mit Reichenthal (Bezirk Urfahr-Umgebung)<br />Kooperation Sommerbetreuung VS-Kinder mit Reichenthal (Bezirk Urfahr-Umgebung)<br />","summer":"Ja"},"gkz_40606":{"zip":4273,"name":"Kaltenberg","category":"E","nanny":"Nein","creche":"Nein","afternoon":"Nein","nonstop":"Nein","open":"Mo: 7:30 - 12:30; Di,Mi,Do,Fr: 7:00 - 13:00","lunch":"Nein","info":"","summer":"Nein"},"gkz_40607":{"zip":4292,"name":"Kefermarkt","category":"A","nanny":"Nein","creche":"Ja","afternoon":"Ja","nonstop":"Ja","open":"Mo,Di,Mi,Do: 7:00 - 16:00; Fr: 7:00 - 13:00","lunch":"Ja","info":"Journaldienst Unter-Dreij&auml;hrige in den Semesterferien<br />Journaldienst Kindergarten in den Semesterferien<br />","summer":"Ja"},"gkz_40608":{"zip":4280,"name":"KÃ¶nigswiesen","category":"B","nanny":"Ja","creche":"Ja","afternoon":"Ja","nonstop":"Nein","open":"Mo,Fr: 7:00 - 12:30; Di,Mi,Do: 7:00 - 16:00","lunch":"Ja","info":"","summer":"Nein"},"gkz_40609":{"zip":4291,"name":"Lasberg","category":"C","nanny":"Nein","creche":"Ja","afternoon":"Ja","nonstop":"Nein","open":"Mo,Di,Do: 7:00 - 16:00; Mi,Fr: 7:00 - 13:00","lunch":"Nein","info":"Mittgessen: Mo, Di, Do<br />","summer":"Ja"},"gkz_40610":{"zip":4262,"name":"Leopoldschlag","category":"D","nanny":"Nein","creche":"Ja","afternoon":"Nein","nonstop":"Nein","open":"Mo,Fr: 7:15 - 12:30; Di,Mi,Do: 7:15 - 16:00","lunch":"Nein","info":" Kooperation Sommerbetreuung Unter-Dreij&auml;hrige mit Rainbach i.M.; Journaldienst Unter-Dreij&auml;hrige in den Semesterferien<br />Mittgessen: Di, Mi, Do; Kooperation Sommerbetreuung Kindergarten mit Rainbach i.M.<br />NM-Betreuung VS-Kinder Mo, Fr bis 12:30 Uhr und Di , Mi, Do bis 16:00 Uhr<br />","summer":"Ja"},"gkz_40611":{"zip":4252,"name":"Liebenau","category":"E","nanny":"Nein","creche":"Nein","afternoon":"Nein","nonstop":"Nein","open":"Mo,Di: 7:00 - 16:15; Mi,Do: 7:15 - 12:30; Fr: 7:00 - 12:30","lunch":"Nein","info":"Mittagessen: Mo, Di<br />NM-Betreuung VS-Kinder Mo, Di bis 16:15 Uhr<br />","summer":"Nein"},"gkz_40612":{"zip":4212,"name":"Neumarkt i.M.","category":"1A","nanny":"Ja","creche":"Ja","afternoon":"Ja","nonstop":"Ja","open":"Mo,Di,Mi,Do: 7:00 - 17:00; Fr: 7:00 - 16:00","lunch":"Ja","info":"Journaldienst Unter-Dreij&auml;hrige in den Semesterferien und an Fenstertagen<br />Journaldienst Kindergarten an Fenstertagen<br />Journaldienst VS-Kinder in den Semsterferien und an Fenstertagen<br />","summer":"Ja"},"gkz_40613":{"zip":4282,"name":"Pierbach","category":"C","nanny":"Ja","creche":"Ja","afternoon":"Ja","nonstop":"Nein","open":"Mo,Di,Mi,Do,Fr: 7:15 - 12:45","lunch":"Nein","info":"","summer":"Nein"},"gkz_40614":{"zip":4230,"name":"Pregarten","category":"1A","nanny":"Ja","creche":"Ja","afternoon":"Ja","nonstop":"Ja","open":"Mo,Di,Mi,Do: 6:30 - 17:00; Fr: 6:30 - 15:00","lunch":"Ja","info":"Kooperation Sommerbetreuung Unter-Dreij&auml;hrige mit Hagenberg i.M., Tragwein, Unterweitersdorf und Wartberg o.d.A.<br />Kooperation Sommerbetreuung Kindergarten mit Hagenberg i.M., Tragwein, Unterweitersdorf und Wartberg o.d.A.<br />Kooperation Sommerbetreuung VS-Kinder mit Hagenberg i.M., Tragwein, Unterweitersdorf und Wartberg o.d.A.<br />","summer":"Ja"},"gkz_40615":{"zip":4261,"name":"Rainbach i. M.","category":"A","nanny":"Ja","creche":"Ja","afternoon":"Ja","nonstop":"Ja","open":"Mo,Di,Mi,Do: 7:00 - 16:00; Fr: 7:00 - 13:00","lunch":"Ja","info":"","summer":"Ja"},"gkz_40616":{"zip":4251,"name":"Sandl","category":"E","nanny":"Ja","creche":"Nein","afternoon":"Nein","nonstop":"Nein","open":"Mo,Di,Mi,Do,Fr: 7:00 - 13:00","lunch":"Nein","info":"Kooperation Sommerbetreuung Kindergarten mit Freistadt <br />Kooperation Sommerbetreuung VS-Kinder mit Freistadt <br />","summer":"Ja"},"gkz_40617":{"zip":4294,"name":"St. Leonhard b.F.","category":"E","nanny":"Ja","creche":"Nein","afternoon":"Nein","nonstop":"Nein","open":"Mo,Di,Mi,Do,Fr: 7:00 - 12:45","lunch":"Nein","info":"NM-Betreuung VS-Kinder Di, Mi, Do bis 17:00 Uhr<br />","summer":"Nein"},"gkz_40618":{"zip":4271,"name":"St. Oswald b.F.","category":"A","nanny":"Ja","creche":"Ja","afternoon":"Ja","nonstop":"Ja","open":"Mo,Di,Mi,Do: 7:15 - 17:00; Fr: 7:15 - 13:00","lunch":"Ja","info":"Kooperation Sommerbetreuung Unter-Dreij&auml;hrige mit Lasberg; Kooperation Unter-Dreij&auml;hrige mit Lasberg;  Journaldienst Unter-Dreij&auml;hrige in den Semesterferien<br /> Kooperation Sommerbetreuung Kindergarten mit Lasberg; Journaldienst Kindergarten in den Semesterferien<br />Kooperation Sommerbetreuung VS-Kinder mit Lasberg<br />","summer":"Ja"},"gkz_40619":{"zip":4274,"name":"SchÃ¶nau i.M.","category":"C","nanny":"Nein","creche":"Ja","afternoon":"Ja","nonstop":"Nein","open":"Mo,Di,Fr: 7:00 - 13:00; Mi,Do: 7:00 - 16:30","lunch":"Nein","info":"Mittagessen: Mi, Do<br />","summer":"Nein"},"gkz_40620":{"zip":4284,"name":"Tragwein","category":"A","nanny":"Ja","creche":"Ja","afternoon":"Ja","nonstop":"Ja","open":"Mo,Di,Mi,Do: 7:00 - 16:00; Fr: 7:00 - 13:00","lunch":"Ja","info":"Kooperation Sommerbetreuung Unter-Dreij&auml;hrige mit Hagenberg i. M., Pregarten und Wartberg o. d. A.; Journaldienst Unter-Dreij&auml;hrige in den Semester- und Osterferien und an Fenstertagen<br /> Kooperation Sommerbetreuung Kindergarten mit Hagenberg i. M., Pregarten und Wartberg o. d. A.; Journaldienst Kindergarten in den Semester- und Osterferien und an Fenstertagen<br />Journaldienst VS-Kinder in den Semester- und Osterferien, im Juli und an schulautonomen Tagen<br />","summer":"Ja"},"gkz_40621":{"zip":4273,"name":"UnterweiÃŸenbach","category":"B","nanny":"Ja","creche":"Ja","afternoon":"Ja","nonstop":"Nein","open":"Mo,Mi,Fr: 7:00 - 12:30; Di,Do: 7:00 - 17:00","lunch":"Ja","info":"Journaldienst Unter-Dreij&auml;hrige in den Semesterferien und an Fenstertagen<br />Journaldienst Kindergarten in den Semesterferien und an Fenstertagen<br />","summer":"Ja"},"gkz_40622":{"zip":4210,"name":"Unterweitersdorf","category":"A","nanny":"Nein","creche":"Ja","afternoon":"Ja","nonstop":"Ja","open":"Mo,Di,Mi,Do: 7:00 - 16:00; Fr: 7:00 - 15:00","lunch":"Ja","info":"Kooperation Sommerbetreuung Unter-Dreij&auml;hrige mit Pregarten <br /> Kooperation Sommerbetreuung Kindergarten mit Pregarten; Journaldienst Kindergarten in den Semesterferien<br />","summer":"Ja"},"gkz_40623":{"zip":4240,"name":"Waldburg","category":"B","nanny":"Nein","creche":"Ja","afternoon":"Ja","nonstop":"Nein","open":"Mo,Mi: 7:00 - 13:30; Di: 7:00 - 16:00; Do: 7:00 - 17:00; Fr: 7:00 - 12:30","lunch":"Ja","info":"","summer":"Nein"},"gkz_40624":{"zip":4224,"name":"Wartberg o.d.A.","category":"1A","nanny":"Ja","creche":"Ja","afternoon":"Ja","nonstop":"Ja","open":"Mo,Di,Mi,Do,Fr: 6:30 - 16:30","lunch":"Ja","info":"Journaldienst Unter-Dreij&auml;hrige in den Semesterferien<br />","summer":"Ja"},"gkz_40625":{"zip":4272,"name":"Weitersfelden","category":"C","nanny":"Ja","creche":"Ja","afternoon":"Ja","nonstop":"Nein","open":"Mo,Di,Mi,Do,Fr: 7:00 - 12:45","lunch":"Nein","info":"Kooperation NM-Betreuung VS-Kinder mit St. Leonhard b. F.<br />","summer":"Ja"},"gkz_40626":{"zip":4263,"name":"Windhaag b.F.","category":"D","nanny":"Ja","creche":"Nein","afternoon":"Ja","nonstop":"Nein","open":"Mo,Di: 7:15 - 17:00; Mi,Do,Fr: 7:15 - 12:30","lunch":"Nein","info":"Mittagessen: Mo, Di; Kooperation Sommerbetreuung Kindergarten mit Rainbach i. M. <br />Kooperation Sommerbetreuung VS-Kinder mit Rainbach i. M.<br />","summer":"Ja"},"gkz_40627":{"zip":4283,"name":"Bad Zell","category":"A","nanny":"Ja","creche":"Ja","afternoon":"Ja","nonstop":"Ja","open":"Mo,Mi: 7:00 - 16:00; Di,Do: 7:00 - 17:00; Fr: 7:00 - 12:30","lunch":"Ja","info":"Kooperation Unter-Dreij&auml;hrige mit Tragwein<br />","summer":"Nein"},"gkz_40701":{"zip":4813,"name":"AltmÃ¼nster","category":"A","nanny":"Nein","creche":"Ja","afternoon":"Ja","nonstop":"Ja","open":"Mo,Di,Mi,Do: 7:00 - 16:00; Fr: 7:00 - 13:00","lunch":"Ja","info":"Journaldienst Unter-Dreij&auml;hrige in den Oster- und Pfingstferien<br />Journaldienst Kindergarten in den Oster- und Pfingstferien<br />","summer":"Ja"},"gkz_40702":{"zip":4822,"name":"Bad Goisern","category":"A","nanny":"Ja","creche":"Ja","afternoon":"Ja","nonstop":"Ja","open":"Mo,Di,Mi,Do,Fr: 7:00 - 16:00","lunch":"Ja","info":"","summer":"Ja"},"gkz_40703":{"zip":4820,"name":"Bad Ischl","category":"1A","nanny":"Ja","creche":"Ja","afternoon":"Ja","nonstop":"Ja","open":"Mo,Di,Mi,Do,Fr: 6:30 - 17:15","lunch":"Ja","info":"","summer":"Ja"},"gkz_40704":{"zip":4802,"name":"Ebensee","category":"1A","nanny":"Nein","creche":"Ja","afternoon":"Ja","nonstop":"Ja","open":"Mo,Di,Mi,Do: 6:30 - 16:30; Fr: 6:30 - 13:30","lunch":"Ja","info":"","summer":"Ja"},"gkz_40705":{"zip":4810,"name":"Gmunden","category":"A","nanny":"Ja","creche":"Ja","afternoon":"Ja","nonstop":"Ja","open":"Mo,Di,Mi,Do,Fr: 6:45 - 16:00","lunch":"Ja","info":"Journaldienst Unter-Dreij&auml;hrige in den Osterferien und an Fenstertagen<br />Journaldienst Kindergarten in den Osterferien und an Fenstertagen<br />","summer":"Ja"},"gkz_40706":{"zip":4824,"name":"Gosau","category":"A","nanny":"Ja","creche":"Ja","afternoon":"Ja","nonstop":"Ja","open":"Mo,Di,Mi,Do,Fr: 7:00 - 16:00","lunch":"Ja","info":"","summer":"Ja"},"gkz_40707":{"zip":4645,"name":"GrÃ¼nau i.A.","category":"A","nanny":"Nein","creche":"Ja","afternoon":"Ja","nonstop":"Ja","open":"Mo,Di,Mi,Do: 7:00 - 16:00; Fr: 7:00 - 12:30","lunch":"Ja","info":"Kooperation Sommerbetreuung Kindergarten mit Scharnstein <br />","summer":"Ja"},"gkz_40708":{"zip":4816,"name":"Gschwandt","category":"A","nanny":"Ja","creche":"Ja","afternoon":"Ja","nonstop":"Ja","open":"Mo,Di,Mi,Do: 7:00 - 15:30; Fr: 7:00 - 12:30","lunch":"Ja","info":" Kooperation Sommerbetreuung Unter-Dreij&auml;hrige mit Gmunden und Laakirchen; Journaldienst Unter-Dreij&auml;hrige in den Semster- und Osterferien;<br />Kooperation Sommerbetreuung Kindergarten mit Gmunden und Laakirchen; Journaldienst Kindergarten in den Semster- und Osterferien<br />","summer":"Ja"},"gkz_40709":{"zip":4830,"name":"Hallstatt","category":"A","nanny":"Ja","creche":"Ja","afternoon":"Ja","nonstop":"Ja","open":"Mo,Di,Mi,Do: 7:30 - 16:00; Fr: 7:30 - 12:30","lunch":"Ja","info":"","summer":"Nein"},"gkz_40710":{"zip":4656,"name":"Kirchham","category":"A","nanny":"Ja","creche":"Ja","afternoon":"Ja","nonstop":"Ja","open":"Mo,Di,Mi,Do: 7:00 - 16:00; Fr: 7:00 - 13:00","lunch":"Ja","info":"Kooperation Unter-Dreij&auml;hrige mit Gschwand und Vorchdorf<br />Kooperation Sommerbetreuung Kindergarten mit Laakirchen<br />","summer":"Ja"},"gkz_40711":{"zip":4663,"name":"Laakirchen","category":"A","nanny":"Ja","creche":"Ja","afternoon":"Ja","nonstop":"Ja","open":"Mo,Di,Mi,Do: 7:00 - 16:00; Fr: 7:00 - 15:00","lunch":"Ja","info":"","summer":"Ja"},"gkz_40712":{"zip":4831,"name":"Obertraun","category":"B","nanny":"Ja","creche":"Ja","afternoon":"Ja","nonstop":"Nein","open":"Mo,Di,Mi,Do: 7:30 - 15:00; Fr: 7:30 - 12:30","lunch":"Ja","info":"","summer":"Nein"},"gkz_40713":{"zip":4694,"name":"Ohlsdorf","category":"A","nanny":"Ja","creche":"Ja","afternoon":"Ja","nonstop":"Ja","open":"Mo,Di,Mi,Do: 7:00 - 16:00; Fr: 7:00 - 13:00","lunch":"Ja","info":"Journaldienst VS-Kinder in den Semesterferien<br />","summer":"Ja"},"gkz_40714":{"zip":4812,"name":"Pinsdorf","category":"A","nanny":"Ja","creche":"Ja","afternoon":"Ja","nonstop":"Ja","open":"Mo,Di,Mi,Do,Fr: 6:45 - 15:30","lunch":"Ja","info":"Kooperation Sommerbetreuung Kindergarten mit Gmunden<br />Journaldienst VS-Kinder an den Fenstertage<br />","summer":"Ja"},"gkz_40715":{"zip":4661,"name":"Roitham a. T.","category":"C","nanny":"Nein","creche":"Ja","afternoon":"Nein","nonstop":"Nein","open":"Mo,Di,Mi: 7:30 - 13:30; Do: 7:30 - 16:00; Fr: 7:30 - 12:30","lunch":"Ja","info":"Kooperation Sommerbetreuung Unter-Dreij&auml;hrige mit Laakirchen<br />Kooperation Sommerbetreuung Kindergarten mit Laakirchen<br />","summer":"Ja"},"gkz_40716":{"zip":4817,"name":"St. Konrad","category":"A","nanny":"Ja","creche":"Ja","afternoon":"Ja","nonstop":"Ja","open":"Mo,Di,Mi,Do,Fr: 7:00 - 15:00","lunch":"Ja","info":"","summer":"Nein"},"gkz_40717":{"zip":5360,"name":"St. Wolfgang i.S.","category":"A","nanny":"Ja","creche":"Ja","afternoon":"Ja","nonstop":"Ja","open":"Mo,Di,Mi,Do: 7:30 - 16:00; Fr: 7:30 - 13:00","lunch":"Ja","info":"","summer":"Ja"},"gkz_40718":{"zip":4801,"name":"Traunkirchen","category":"A","nanny":"Ja","creche":"Ja","afternoon":"Ja","nonstop":"Ja","open":"Mo,Di,Mi,Do: 6:30 - 15:30; Fr: 6:30 - 12:30","lunch":"Ja","info":"Journaldienst Unter-Dreij&auml;hrige ausgenommen Sommer- und Weihnachtsferien<br />Journaldienst Kindergarten ausgenommen Sommer- und Weihnachtsferien<br />","summer":"Nein"},"gkz_40719":{"zip":4644,"name":"Scharnstein","category":"A","nanny":"Ja","creche":"Ja","afternoon":"Ja","nonstop":"Ja","open":"Mo,Di,Mi,Do: 6:30 - 16:00; Fr: 6:30 - 13:00","lunch":"Ja","info":"","summer":"Ja"},"gkz_40720":{"zip":4655,"name":"Vorchdorf","category":"1A","nanny":"Ja","creche":"Ja","afternoon":"Ja","nonstop":"Ja","open":"Mo,Di,Mi,Do: 6:45 - 16:30; Fr: 6:45 - 16:00","lunch":"Ja","info":"Kooperation Sommerbetreuung Kindergarten mit Eberstalzell und Laakirchen<br />","summer":"Ja"},"gkz_40801":{"zip":4676,"name":"Aistersheim","category":"C","nanny":"Ja","creche":"Ja","afternoon":"Nein","nonstop":"Nein","open":"Mo,Do,Fr: 7:15 - 12:45; Di,Mi: 7:15 - 14:00","lunch":"Ja","info":" Kooperation Sommerbetreuung Kindergarten mit Hofkirchen a.d.T. <br />Kooperation Sommerbetreuung VS-Kinder mit Hofkirchen a.d.T.<br />","summer":"Ja"},"gkz_40802":{"zip":4701,"name":"Bad Schallerbach","category":"1A","nanny":"Nein","creche":"Ja","afternoon":"Ja","nonstop":"Ja","open":"Mo,Di,Mi,Do: 6:45 - 16:15; Fr: 6:45 - 14:30","lunch":"Ja","info":"Unter-Dreij&auml;hrige ganzj&auml;hrig ge&ouml;ffnet<br />Kindergarten ganzj&auml;hrig ge&ouml;ffnet<br />","summer":"Ja"},"gkz_40803":{"zip":4722,"name":"Bruck-Waasen","category":"A","nanny":"Ja","creche":"Ja","afternoon":"Ja","nonstop":"Ja","open":"Mo,Di,Mi,Do: 7:15 - 16:30; Fr: 7:15 - 12:30","lunch":"Ja","info":"Kooperation Unter-Dreij&auml;hrige mit Peuerbach; Journaldienst Unter-Dreij&auml;hrige in den Semester-, Osterferien und letzte Juliwoche<br />Journaldienst Kindergarten in den Semster- und Osterferien (jeweils an den ersten 3 Tagen) sowie Osterdienstag<br />","summer":"Ja"},"gkz_40804":{"zip":4724,"name":"Eschenau i.H.","category":"B","nanny":"Nein","creche":"Ja","afternoon":"Ja","nonstop":"Nein","open":"Mo,Di,Mi,Do: 7:00 - 14:30; Fr: 7:00 - 13:00","lunch":"Ja","info":"Kooperation Sommerbetreuung Unter-Dreij&auml;hrige mit St. Aegidi (Bezirk Sch&auml;rding)<br />Kooperation Sommerbetreuung Kindergarten mit St. Aegidi (Bezirk Sch&auml;rding)<br />Kooperation Sommerbetreuung VS-Kinder mit St. Aegidi (Bezirk Sch&auml;rding)<br />","summer":"Ja"},"gkz_40805":{"zip":4713,"name":"Gallspach","category":"A","nanny":"Nein","creche":"Ja","afternoon":"Ja","nonstop":"Ja","open":"Mo,Di,Mi,Do: 7:00 - 16:00; Fr: 7:00 - 14:00","lunch":"Ja","info":"Journaldienst Kindergarten an Fenstertagen <br />","summer":"Ja"},"gkz_40806":{"zip":4673,"name":"Gaspoltshofen","category":"B","nanny":"Ja","creche":"Ja","afternoon":"Ja","nonstop":"Nein","open":"Mo,Di,Mi: 6:45 - 16:15; Do,Fr: 6:45 - 13:15","lunch":"Ja","info":"Journaldienst Unter-Dreij&auml;hrige in der letzter Juliwoche<br />Kooperation Sommerbetreuung Kindergarten mit Hofkirchen a.d.T. <br />","summer":"Ja"},"gkz_40807":{"zip":4682,"name":"Geboltskirchen","category":"D","nanny":"Ja","creche":"Ja","afternoon":"Nein","nonstop":"Nein","open":"Mo,Mi: 7:00 - 16:00; Di,Do,Fr: 7:00 - 12:30","lunch":"Nein","info":"Kooperation Unter-Dreij&auml;hrige mit Haag a.H., Rottenbach und Weibern<br />Mittagessen: Mo, Mi; Kooperation Sommerbetreuung Kindergarten mit Hofkirchen a.d.T. <br />Kooperation Sommerbetreuung VS-Kinder mit Hofkirchen a.d.T. <br />","summer":"Ja"},"gkz_40808":{"zip":4710,"name":"Grieskirchen","category":"1A","nanny":"Ja","creche":"Ja","afternoon":"Ja","nonstop":"Ja","open":"Mo,Di,Mi,Do,Fr: 6:45 - 16:15","lunch":"Ja","info":"","summer":"Ja"},"gkz_40809":{"zip":4680,"name":"Haag a.H.","category":"A","nanny":"Ja","creche":"Ja","afternoon":"Ja","nonstop":"Ja","open":"Mo,Di,Mi,Do: 7:15 - 16:00; Fr: 7:15 - 15:00","lunch":"Ja","info":"","summer":"Nein"},"gkz_40810":{"zip":4733,"name":"Heiligenberg","category":"C","nanny":"Ja","creche":"Ja","afternoon":"Ja","nonstop":"Nein","open":"Mo,Do,Fr: 7:30 - 13:00; Di,Mi: 7:30 - 16:00","lunch":"Nein","info":"Mittagessen: Di, Mi<br />Kooperation NM-Betreuung VS-Kinder mit Waizenkirchen<br />","summer":"Nein"},"gkz_40811":{"zip":4716,"name":"Hofkirchen a.d.T.","category":"A","nanny":"Nein","creche":"Ja","afternoon":"Ja","nonstop":"Ja","open":"Mo,Di,Mi,Do: 7:15 - 15:30; Fr: 7:15 - 12:15","lunch":"Ja","info":"","summer":"Ja"},"gkz_40812":{"zip":4720,"name":"Kallham","category":"B","nanny":"Ja","creche":"Ja","afternoon":"Ja","nonstop":"Nein","open":"Mo: 7:00 - 13:30; Di,Mi,Do: 7:00 - 16:00; Fr: 7:00 - 12:30","lunch":"Ja","info":"Kooperation Sommerbetreuung Unter-Dreij&auml;hrige mit Hofkirchen a.d.T. <br />Kooperation Sommerbetreuung Kindergarten mit Hofkirchen a.d.T.<br />","summer":"Ja"},"gkz_40813":{"zip":4633,"name":"Kematen a.I.","category":"A","nanny":"Ja","creche":"Ja","afternoon":"Ja","nonstop":"Ja","open":"Mo,Di,Mi,Do: 7:00 - 16:00; Fr: 7:00 - 13:00","lunch":"Ja","info":"Kooperation Sommerbetreuung Kindergarten mit Offenhausen (Bezirk Wels-Land)<br />","summer":"Ja"},"gkz_40814":{"zip":4714,"name":"Meggenhofen","category":"A","nanny":"Nein","creche":"Ja","afternoon":"Ja","nonstop":"Ja","open":"Mo,Di,Mi,Do: 7:00 - 16:45; Fr: 7:00 - 13:00","lunch":"Ja","info":"Kooperation Unter-Dreij&auml;hrige mit Gallspach<br />","summer":"Nein"},"gkz_40815":{"zip":4712,"name":"Michaelnbach","category":"C","nanny":"Ja","creche":"Ja","afternoon":"Nein","nonstop":"Nein","open":"Mo,Di: 7:15 - 16:00; Mi,Do: 7:15 - 14:00; Fr: 7:15 - 12:30","lunch":"Ja","info":"NM-Betreuung VS-Kinder Mo, Di bis 16:00 Uhr und Mi, Do, Fr bis 12:30 Uhr<br />","summer":"Ja"},"gkz_40816":{"zip":4723,"name":"Natternbach","category":"C","nanny":"Ja","creche":"Ja","afternoon":"Ja","nonstop":"Nein","open":"Mo,Mi,Do: 7:30 - 16:00; Di,Fr: 7:30 - 12:30","lunch":"Nein","info":"Mittagessen: Mo, Mi, Do; Kooperation Sommerbetreuung Kindergarten mit Gemeinden \"Mostlandl-Hausruck\"<br />","summer":"Ja"},"gkz_40817":{"zip":4724,"name":"Neukirchen a.W.","category":"B","nanny":"Ja","creche":"Ja","afternoon":"Ja","nonstop":"Nein","open":"Mo,Di,Mi,Do: 7:00 - 14:30; Fr: 7:00 - 13:00","lunch":"Ja","info":"Kooperation Sommerbetreuung Kindergarten mit St. Aegidi<br />Kooperation Sommerbetreuung VS-Kinder mit St. Aegidi<br />","summer":"Ja"},"gkz_40818":{"zip":4720,"name":"Neumarkt i.H.","category":"B","nanny":"Ja","creche":"Ja","afternoon":"Ja","nonstop":"Nein","open":"Mo,Mi,Do: 7:15 - 16:00; Di: 7:15 - 13:00; Fr: 7:15 - 12:30","lunch":"Ja","info":"Kooperation Unter-Dreij&auml;hrige mit Taufkirchen a.d.T.<br />","summer":"Nein"},"gkz_40819":{"zip":4722,"name":"Peuerbach","category":"A","nanny":"Ja","creche":"Ja","afternoon":"Ja","nonstop":"Ja","open":"Mo,Di,Mi,Do: 7:00 - 16:00; Fr: 7:00 - 13:00","lunch":"Ja","info":"Journaldienst Unter-Dreij&auml;hrige in den Semester- und Osterferien und an Fenstertagen<br />Journaldienst Kindergarten in den Semester- und Osterferien und an Fenstertagen<br />Kooperation Sommerbetreuung VS-Kinder mit Bruck-Waasen<br />","summer":"Nein"},"gkz_40821":{"zip":4710,"name":"Pollham","category":"C","nanny":"Nein","creche":"Ja","afternoon":"Nein","nonstop":"Nein","open":"Mo,Di,Mi,Do,Fr: 7:30 - 14:00","lunch":"Ja","info":"NM-Betreuung VS-Kinder Mo bis Fr bis 14:00 Uhr<br />","summer":"Nein"},"gkz_40820":{"zip":4720,"name":"PÃ¶tting","category":"C","nanny":"Ja","creche":"Ja","afternoon":"Ja","nonstop":"Nein","open":"Mo,Di,Do,Fr: 7:15 - 12:30; Mi: 7:15 - 13:00","lunch":"Nein","info":"Kooperation Unter-Dreij&auml;hrige mit Taufkirchen a.d.T.<br />Kooperation Sommerbetreuung Kindergarten mit Hofkirchen a.d.T.<br />Kooperation NM-Betreuung VS-Kinder mit Neumarkt i.H.<br />","summer":"Ja"},"gkz_40822":{"zip":4742,"name":"Pram","category":"B","nanny":"Nein","creche":"Ja","afternoon":"Ja","nonstop":"Nein","open":"Mo,Di,Do: 7:00 - 16:00; Mi,Fr: 7:00 - 12:30","lunch":"Ja","info":"Journaldienst Unter-Dreij&auml;hrige in den Semester- und Osterferien und an Fenstertagen<br />Journaldienst Kindergarten an Fenstertagen <br />Journaldienst VS-Kinder in den Semesterferien<br />","summer":"Nein"},"gkz_40823":{"zip":4681,"name":"Rottenbach","category":"D","nanny":"Ja","creche":"Ja","afternoon":"Nein","nonstop":"Nein","open":"Mo,Di,Mi,Do,Fr: 7:00 - 13:00","lunch":"Nein","info":"Kooperation Sommerbetreuung Unter-Dreij&auml;hrige mit Hofkirchen a.d.T. <br />Kooperation Sommerbetreuung Kindergarten mit Hofkirchen a.d.T. <br />","summer":"Ja"},"gkz_40824":{"zip":4084,"name":"St. Agatha","category":"D","nanny":"Nein","creche":"Ja","afternoon":"Nein","nonstop":"Nein","open":"Mo,Mi,Fr: 7:00 - 13:00; Di,Do: 7:00 - 17:00","lunch":"Nein","info":"Mittagessen: Di, Do<br />NM-Betreuung VS-Kinder Di, Do bis 17:00 Uhr<br />","summer":"Ja"},"gkz_40825":{"zip":4710,"name":"St. Georgen b.G.","category":"D","nanny":"Nein","creche":"Ja","afternoon":"Nein","nonstop":"Nein","open":"Mo,Di,Fr: 7:15 - 12:45; Mi,Do: 7:15 - 16:00","lunch":"Nein","info":"Kooperation Unter-Dreij&auml;hrige mit Grieskirchen und Tollet<br />Mittagessen: Mi, Do; Kooperation Sommerbetreuung Kindergarten mit Grieskirchen<br />NM-Betreuung VS-Kinder Mi, Do bis 16:00 Uhr <br />","summer":"Ja"},"gkz_40826":{"zip":4732,"name":"St. Thomas","category":"A","nanny":"Ja","creche":"Ja","afternoon":"Ja","nonstop":"Ja","open":"Mo,Di,Mi,Do: 6:45 - 16:00; Fr: 6:45 - 13:00","lunch":"Ja","info":"Kooperation Sommerbetreuung Unter-Dreij&auml;hrige mit Michaelnbach<br />Kooperation Sommerbetreuung Kindergarten mit Michaelnbach <br />Kooperation Sommerbetreuung VS-Kinder mit Michaelnbach  <br />","summer":"Nein"},"gkz_40827":{"zip":4707,"name":"SchlÃ¼ÃŸlberg","category":"1A","nanny":"Ja","creche":"Ja","afternoon":"Ja","nonstop":"Ja","open":"Mo,Di,Mi,Do: 6:45 - 16:30; Fr: 6:45 - 14:00","lunch":"Ja","info":"Journaldienst Unter-Dreij&auml;hrige in der ersten J&auml;nner-Woche, Semesterferien, Oster- und Pfingstferien und an Fenstertagen<br />Journaldienst Kindergarten in der ersten J&auml;nner-Woche, Semesterferien, Oster- und Pfingstferien und an Fenstertagen<br />Journaldienst VS-Kinder in den Semester- und Weihnachtsferien und an Fenstertagen<br />","summer":"Nein"},"gkz_40828":{"zip":4722,"name":"Steegen","category":"A","nanny":"Ja","creche":"Ja","afternoon":"Ja","nonstop":"Ja","open":"Mo,Di,Mi,Do: 7:00 - 16:00; Fr: 7:00 - 13:00","lunch":"Ja","info":"Journaldienst Unter-Dreij&auml;hrige in den Semester- und Osterferien und an Fenstertagen<br />Journaldienst Kindergarten in den Semester- und Osterferien und an Fenstertagen<br />Kooperation NM-Betreuung VS-Kinder mit Peuerbach<br />","summer":"Nein"},"gkz_40829":{"zip":4715,"name":"Taufkirchen a.d.T.","category":"C","nanny":"Nein","creche":"Ja","afternoon":"Nein","nonstop":"Nein","open":"Mo,Fr: 7:00 - 13:00; Di,Mi,Do: 7:00 - 16:00","lunch":"Ja","info":"Kooperation Sommerbetreuung Kindergarten mit Hofkirchen a.d.T.<br />NM-Betreuung VS-Kinder Mo, Di, Mi bis 16:00 Uhr<br />","summer":"Ja"},"gkz_40830":{"zip":4710,"name":"Tollet","category":"1A","nanny":"Ja","creche":"Ja","afternoon":"Ja","nonstop":"Ja","open":"Mo,Di,Mi,Do,Fr: 6:45 - 16:15","lunch":"Ja","info":"Kooperation Unter-Dreij&auml;hrige mit Grieskirchen; Kooperation Sommerbetreuung Unter-Dreij&auml;hrige mit Grieskirchen<br />Kooperation Kindergarten mit Grieskirchen; Kooperation Sommerbetreuung Kindergarten mit Grieskirchen<br />Kooperation NM-Betreuung VS-Kinder mit Grieskirchen; Kooperation Sommerbetreuung VS-Kinder mit Grieskirchen<br />","summer":"Ja"},"gkz_40831":{"zip":4730,"name":"Waizenkirchen","category":"A","nanny":"Nein","creche":"Ja","afternoon":"Ja","nonstop":"Ja","open":"Mo,Di,Mi,Do: 7:00 - 16:00; Fr: 7:00 - 13:30","lunch":"Ja","info":"Journaldienst Unter-Dreij&auml;hrige in den Semester- und Osterferien und an Fenstertagen<br />Journaldienst Kindergarten in den Semester- und Osterferien und an Fenstertagen<br />","summer":"Nein"},"gkz_40832":{"zip":4702,"name":"Wallern a.d.T.","category":"1A","nanny":"Nein","creche":"Ja","afternoon":"Ja","nonstop":"Ja","open":"Mo,Di,Mi,Do: 7:00 - 16:30; Fr: 7:00 - 15:00","lunch":"Ja","info":"","summer":"Ja"},"gkz_40833":{"zip":4675,"name":"Weibern","category":"A","nanny":"Nein","creche":"Ja","afternoon":"Ja","nonstop":"Ja","open":"Mo,Di,Mi,Do: 7:15 - 16:00; Fr: 7:15 - 12:30","lunch":"Ja","info":"Kooperation Sommerbetreuung Kindergarten mit Hofkirchen a.d.T.<br />","summer":"Ja"},"gkz_40834":{"zip":4741,"name":"Wendling","category":"C","nanny":"Ja","creche":"Ja","afternoon":"Ja","nonstop":"Nein","open":"Mo,Di,Do,Fr: 7:30 - 12:30; Mi: 7:30 - 16:15","lunch":"Nein","info":"Kooperation Unter-Dreij&auml;hrige mit Kallham und Pram <br />Mittagessen: Mi; Kooperation Sommerbetreuung Kindergarten mit Hofkirchen a.d.T. <br />","summer":"Ja"},"gkz_40901":{"zip":4580,"name":"Edlbach","category":"D","nanny":"Nein","creche":"Ja","afternoon":"Nein","nonstop":"Nein","open":"Mo,Di,Do,Fr: 7:00 - 13:00; Mi: 7:00 - 16:00","lunch":"Nein","info":"Mittagessen: Mi<br />","summer":"Nein"},"gkz_40902":{"zip":4594,"name":"GrÃ¼nburg","category":"A","nanny":"Nein","creche":"Ja","afternoon":"Ja","nonstop":"Ja","open":"Mo,Di,Mi,Do: 7:00 - 16:30; Fr: 7:00 - 13:00","lunch":"Ja","info":"","summer":"Nein"},"gkz_40903":{"zip":4573,"name":"Hinterstoder","category":"D","nanny":"Ja","creche":"Nein","afternoon":"Ja","nonstop":"Nein","open":"Mo,Mi,Fr: 7:30 - 13:00; Di,Do: 7:30 - 16:00","lunch":"Nein","info":"Mittagessen: Di, Do<br />","summer":"Nein"},"gkz_40904":{"zip":4560,"name":"Inzersdorf i.K.","category":"1A","nanny":"Ja","creche":"Ja","afternoon":"Ja","nonstop":"Ja","open":"Mo,Di,Mi,Do: 6:30 - 16:30; Fr: 6:30 - 14:30","lunch":"Ja","info":"Kooperation Sommerbetreuung Kindergarten mit Pettenbach<br />","summer":"Ja"},"gkz_40905":{"zip":4560,"name":"Kirchdorf a.d.K.","category":"1A","nanny":"Ja","creche":"Ja","afternoon":"Ja","nonstop":"Ja","open":"Mo,Di,Mi,Do,Fr: 7:00 - 17:00","lunch":"Ja","info":"Kindergarten ganzj&auml;hrig ge&ouml;ffnet<br />Kooperation Sommerbetreuung VS-Kinder mit Micheldorf<br />","summer":"Ja"},"gkz_40906":{"zip":4564,"name":"Klaus a.d.P.","category":"B","nanny":"Ja","creche":"Ja","afternoon":"Ja","nonstop":"Nein","open":"Mo,Di,Mi,Do: 7:00 - 13:30; Fr: 7:00 - 13:00","lunch":"Ja","info":"","summer":"Nein"},"gkz_40907":{"zip":4550,"name":"KremsmÃ¼nster","category":"A","nanny":"Ja","creche":"Ja","afternoon":"Ja","nonstop":"Ja","open":"Mo,Di,Mi,Do: 6:45 - 16:00; Fr: 6:45 - 12:30","lunch":"Ja","info":"","summer":"Ja"},"gkz_40908":{"zip":4563,"name":"Micheldorf","category":"1A","nanny":"Ja","creche":"Ja","afternoon":"Ja","nonstop":"Ja","open":"Mo,Di,Mi,Do,Fr: 6:30 - 16:00","lunch":"Ja","info":"Kooperation Sommerbetreuung VS-Kinder mit Kirchdorf a.d.K.<br />","summer":"Ja"},"gkz_40909":{"zip":4591,"name":"Molln","category":"1A","nanny":"Ja","creche":"Ja","afternoon":"Ja","nonstop":"Ja","open":"Mo,Di,Mi,Do: 6:45 - 16:00; Fr: 6:45 - 13:15","lunch":"Ja","info":"Unter-Dreij&auml;hrige ganzj&auml;hrig ge&ouml;ffnet<br />Kindergarten ganzj&auml;hrig ge&ouml;ffnet<br />","summer":"Ja"},"gkz_40910":{"zip":4542,"name":"NuÃŸbach","category":"A","nanny":"Ja","creche":"Ja","afternoon":"Ja","nonstop":"Ja","open":"Mo,Di,Mi,Do: 7:00 - 16:00; Fr: 7:00 - 12:30","lunch":"Ja","info":"Kooperation Sommerbetreuung Kindergarten mit Wartberg a.d.K.<br />","summer":"Ja"},"gkz_40911":{"zip":4554,"name":"Oberschlierbach","category":"B","nanny":"Ja","creche":"Ja","afternoon":"Ja","nonstop":"Nein","open":"Mo,Mi,Fr: 7:15 - 12:30; Di,Do: 7:15 - 16:00","lunch":"Ja","info":"Kooperation Sommerbetreuung Kindergarten mit Kirchdorf a.d.K.<br />Kooperation NM-Betreuung VS-Kinder mit Kirchdorf a.d.K.; Kooperation Sommerbetreuung VS-Kinder mit Inzersdorf, Kirchdorf a.d.K. und Micheldorf<br />","summer":"Ja"},"gkz_40912":{"zip":4643,"name":"Pettenbach","category":"A","nanny":"Ja","creche":"Ja","afternoon":"Ja","nonstop":"Ja","open":"Mo,Di,Mi,Do: 6:45 - 16:00; Fr: 6:45 - 13:00","lunch":"Ja","info":"","summer":"Ja"},"gkz_40913":{"zip":4551,"name":"Ried i. T.","category":"A","nanny":"Ja","creche":"Ja","afternoon":"Ja","nonstop":"Ja","open":"Mo,Di,Mi,Do: 7:00 - 16:00; Fr: 7:00 - 13:30","lunch":"Ja","info":"","summer":"Ja"},"gkz_40914":{"zip":4581,"name":"Rosenau a.H.","category":"B","nanny":"Nein","creche":"Ja","afternoon":"Ja","nonstop":"Nein","open":"Mo,Di,Mi,Do,Fr: 7:30 - 14:30","lunch":"Ja","info":"","summer":"Nein"},"gkz_40915":{"zip":4575,"name":"RoÃŸleithen","category":"B","nanny":"Nein","creche":"Ja","afternoon":"Ja","nonstop":"Nein","open":"Mo,Di,Mi: 7:15 - 16:00; Do,Fr: 7:15 - 13:15","lunch":"Ja","info":"Kooperation Unter-Dreij&auml;hrige mit Vorderstoder<br />","summer":"Ja"},"gkz_40916":{"zip":4572,"name":"St. Pankraz","category":"B","nanny":"Nein","creche":"Nein","afternoon":"Nein","nonstop":"Nein","open":"Mo,Di,Mi,Do: 7:00 - 13:30; Fr: 7:00 - 13:00","lunch":"Ja","info":"Kooperation Kindergarten mit Klaus a.d. P.<br />","summer":"Nein"},"gkz_40917":{"zip":4553,"name":"Schlierbach","category":"A","nanny":"Ja","creche":"Ja","afternoon":"Ja","nonstop":"Ja","open":"Mo,Di,Mi,Do: 7:00 - 16:00; Fr: 7:00 - 13:00","lunch":"Ja","info":"Kooperation Unter-Dreij&auml;hrige mit Kirchdorf a.d.K. <br />Kooperation Sommerbetreuung VS-Kinder mit Wartberg a.d.K.<br />","summer":"Nein"},"gkz_40918":{"zip":4582,"name":"Spital a. Pyhrn","category":"A","nanny":"Ja","creche":"Ja","afternoon":"Ja","nonstop":"Ja","open":"Mo,Di,Mi,Do: 7:00 - 15:00; Fr: 7:00 - 12:30","lunch":"Ja","info":"Unter-Dreij&auml;hrige ganzj&auml;hrig ge&ouml;ffnet; Journaldienst Unter-Dreij&auml;hrige in den Semester- und Osterferien und an Fenstertagen<br />Kindergarten ganzj&auml;hrig ge&ouml;ffnet; Journaldienst Kindergarten in den Semester- und Osterferien und an Fenstertagen<br />","summer":"Ja"},"gkz_40919":{"zip":4562,"name":"Steinbach a.Z.","category":"D","nanny":"Ja","creche":"Ja","afternoon":"Nein","nonstop":"Nein","open":"Mo,Di,Mi,Do,Fr: 7:00 - 13:00","lunch":"Nein","info":"","summer":"Nein"},"gkz_40920":{"zip":4594,"name":"Steinbach a.d.S.","category":"B","nanny":"Ja","creche":"Ja","afternoon":"Ja","nonstop":"Nein","open":"Mo,Di,Mi,Do,Fr: 7:00 - 13:00","lunch":"Ja","info":"","summer":"Ja"},"gkz_40921":{"zip":4574,"name":"Vorderstoder","category":"C","nanny":"Nein","creche":"Ja","afternoon":"Ja","nonstop":"Nein","open":"Mo,Di,Do: 7:15 - 16:00; Mi,Fr: 7:15 - 12:30","lunch":"Nein","info":"Mittagessen: Mo, Di, Do<br />","summer":"Nein"},"gkz_40922":{"zip":4552,"name":"Wartberg a.d.K.","category":"A","nanny":"Ja","creche":"Ja","afternoon":"Ja","nonstop":"Ja","open":"Mo,Di,Mi,Do: 6:45 - 16:00; Fr: 6:45 - 13:30","lunch":"Ja","info":"Journaldienst Unter-Dreij&auml;hrige in den Semester-, Oster- und Weihnachtsferien und an Fenstertagen<br />Journaldienst Kindergarten in den Semester-, Oster- und Weihnachtsferien und an Fenstertagen<br />","summer":"Ja"},"gkz_40923":{"zip":4580,"name":"Windischgarsten","category":"1A","nanny":"Nein","creche":"Ja","afternoon":"Ja","nonstop":"Ja","open":"Mo,Di,Mi,Do: 6:45 - 16:30; Fr: 6:45 - 15:00","lunch":"Ja","info":"Journaldienst Unter-Dreij&auml;hrige in der ersten J&auml;nner-Woche, in den Semesterferien und an Fenstertagen<br />Journaldienst Kindergarten in der ersten J&auml;nner-Woche, in den Semesterferien und an Fenstertagen<br />","summer":"Nein"},"gkz_41001":{"zip":4511,"name":"Allhaming","category":"1A","nanny":"Nein","creche":"Ja","afternoon":"Ja","nonstop":"Ja","open":"Mo,Di,Mi,Do,Fr: 6:45 - 17:00","lunch":"Ja","info":"Kooperation Sommerbetreuung Kindergarten mit Neuhofen a.d.K.<br />","summer":"Ja"},"gkz_41002":{"zip":4053,"name":"Ansfelden","category":"1A","nanny":"Ja","creche":"Ja","afternoon":"Ja","nonstop":"Ja","open":"Mo,Di,Mi,Do,Fr: 7:00 - 17:00","lunch":"Ja","info":"","summer":"Ja"},"gkz_41003":{"zip":4481,"name":"Asten","category":"1A","nanny":"Nein","creche":"Ja","afternoon":"Ja","nonstop":"Ja","open":"Mo,Di,Mi,Do: 6:30 - 18:00; Fr: 6:30 - 16:00","lunch":"Ja","info":"","summer":"Ja"},"gkz_41004":{"zip":4622,"name":"Eggendorf i.T.","category":"A","nanny":"Ja","creche":"Ja","afternoon":"Ja","nonstop":"Ja","open":"Mo,Di,Mi,Do,Fr: 7:00 - 15:00","lunch":"Ja","info":"Journaldienst Unter-Dreij&auml;hrige in den Semesterferien<br />Journaldienst Kindergarten in den Semesterferien<br />Journaldienst VS-Kinder in den Semsterferien<br />","summer":"Ja"},"gkz_41005":{"zip":4470,"name":"Enns","category":"1A","nanny":"Ja","creche":"Ja","afternoon":"Ja","nonstop":"Ja","open":"Mo,Di,Mi,Do: 6:45 - 16:30; Fr: 6:45 - 15:00","lunch":"Ja","info":"","summer":"Ja"},"gkz_41006":{"zip":4483,"name":"Hargelsberg","category":"A","nanny":"Nein","creche":"Ja","afternoon":"Ja","nonstop":"Ja","open":"Mo,Di,Mi,Do: 7:00 - 16:00; Fr: 7:00 - 13:00","lunch":"Ja","info":"Kooperation Sommerbetreuung Unter-Dreij&auml;hrige mit Hofkirchen i.T., Kronstorf und Niederneukirchen<br />Kooperation Sommerbetreuung Kindergarten mit Hofkirchen i.T., Kronstorf und Niederneukirchen<br />Kooperation Sommerbetreuung VS-Kinder mit Hofkirchen i.T., Kronstorf und Niederneukirchen<br />","summer":"Ja"},"gkz_41007":{"zip":4063,"name":"HÃ¶rsching","category":"1A","nanny":"Nein","creche":"Ja","afternoon":"Ja","nonstop":"Ja","open":"Mo,Di,Mi,Do,Fr: 7:00 - 16:30","lunch":"Ja","info":"","summer":"Ja"},"gkz_41008":{"zip":4492,"name":"Hofkirchen i.T.","category":"A","nanny":"Nein","creche":"Ja","afternoon":"Ja","nonstop":"Ja","open":"Mo,Di,Mi,Do: 7:00 - 16:00; Fr: 7:00 - 15:00","lunch":"Ja","info":"Kooperation Sommerbetreuung Kindergarten mit Hargelsberg<br />","summer":"Ja"},"gkz_41009":{"zip":4531,"name":"Kematen a.d.K.","category":"1A","nanny":"Nein","creche":"Ja","afternoon":"Ja","nonstop":"Ja","open":"Mo,Di,Mi,Do: 7:00 - 16:30; Fr: 7:00 - 16:00","lunch":"Ja","info":"","summer":"Ja"},"gkz_41010":{"zip":4062,"name":"Kirchberg-Thening","category":"1A","nanny":"Nein","creche":"Ja","afternoon":"Ja","nonstop":"Ja","open":"Mo,Di,Mi,Do,Fr: 6:45 - 16:00","lunch":"Ja","info":"Unter-Dreij&auml;hrige ganzj&auml;hrig ge&ouml;ffnet<br />Kindergarten ganzj&auml;hrig ge&ouml;ffnet<br />","summer":"Ja"},"gkz_41011":{"zip":4484,"name":"Kronstorf","category":"A","nanny":"Ja","creche":"Ja","afternoon":"Ja","nonstop":"Ja","open":"Mo,Di,Mi,Do,Fr: 6:45 - 16:00","lunch":"Ja","info":"Kooperation Sommerbetreuung Unter-Dreij&auml;hrige mit Hargelsberg<br />Kooperation Sommerbetreuung Kindergarten mit Hargelsberg<br />","summer":"Ja"},"gkz_41012":{"zip":4060,"name":"Leonding","category":"1A","nanny":"Ja","creche":"Ja","afternoon":"Ja","nonstop":"Ja","open":"Mo,Di,Mi,Do: 6:30 - 18:00; Fr: 6:30 - 17:00","lunch":"Ja","info":"","summer":"Ja"},"gkz_41013":{"zip":4490,"name":"St. Florian","category":"1A","nanny":"Ja","creche":"Ja","afternoon":"Ja","nonstop":"Ja","open":"Mo,Di,Mi,Do: 7:00 - 16:30; Fr: 7:00 - 14:00","lunch":"Ja","info":"","summer":"Ja"},"gkz_41014":{"zip":4501,"name":"Neuhofen a.d.K.","category":"1A","nanny":"Ja","creche":"Ja","afternoon":"Ja","nonstop":"Ja","open":"Mo,Di,Mi,Do: 7:00 - 17:00; Fr: 7:00 - 15:00","lunch":"Ja","info":"","summer":"Ja"},"gkz_41015":{"zip":4491,"name":"Niederneukirchen","category":"A","nanny":"Nein","creche":"Ja","afternoon":"Ja","nonstop":"Ja","open":"Mo,Di,Mi,Do: 7:00 - 16:00; Fr: 7:00 - 14:00","lunch":"Ja","info":"Kooperation Sommerbetreuung Kindergarten mit Hargelsberg, Hofkirchen i.T. und Kronstorf<br />Kooperation Sommerbetreuung VS-Kinder mit Hargelsberg, Hofkirchen i.T. und Kronstorf<br />","summer":"Ja"},"gkz_41016":{"zip":4064,"name":"Oftering","category":"A","nanny":"Nein","creche":"Ja","afternoon":"Ja","nonstop":"Ja","open":"Mo,Di,Mi,Do: 7:15 - 16:00; Fr: 7:15 - 14:00","lunch":"Ja","info":"","summer":"Nein"},"gkz_41017":{"zip":4061,"name":"Pasching","category":"1A","nanny":"Ja","creche":"Ja","afternoon":"Ja","nonstop":"Ja","open":"Mo,Di,Mi,Do: 7:00 - 17:00; Fr: 7:00 - 15:00","lunch":"Ja","info":"Unter-Dreij&auml;hrige ganzj&auml;hrig ge&ouml;ffnet<br />Kindergarten ganzj&auml;hrig ge&ouml;ffnet<br />","summer":"Ja"},"gkz_41018":{"zip":4533,"name":"Piberbach","category":"1A","nanny":"Nein","creche":"Ja","afternoon":"Ja","nonstop":"Ja","open":"Mo,Di,Mi,Do: 7:00 - 17:00; Fr: 7:00 - 16:00","lunch":"Ja","info":"Kooperation Sommerbetreuung Kindergarten mit Neuhofen a.d.K.<br />","summer":"Ja"},"gkz_41019":{"zip":4055,"name":"Pucking","category":"A","nanny":"Ja","creche":"Ja","afternoon":"Ja","nonstop":"Ja","open":"Mo,Di,Mi,Do,Fr: 7:00 - 16:00","lunch":"Ja","info":"Journaldienst Unter-Dreij&auml;hrige in den Semester- und Osterferien und an Fenstertagen<br />Journaldienst Kindergarten in den Semester- und Osterferien und an Fenstertagen<br />Journaldienst VS-Kinder in den Semester- und Osterferien und an Fenstertagen<br />","summer":"Ja"},"gkz_41020":{"zip":4502,"name":"St. Marien","category":"A","nanny":"Ja","creche":"Ja","afternoon":"Ja","nonstop":"Ja","open":"Mo,Di,Mi,Do: 7:00 - 16:00; Fr: 7:00 - 14:00","lunch":"Ja","info":"Kooperation Sommerbetreuung Kindergarten mit Neuhofen a.d.K. <br />","summer":"Ja"},"gkz_41021":{"zip":4050,"name":"Traun","category":"1A","nanny":"Ja","creche":"Ja","afternoon":"Ja","nonstop":"Ja","open":"Mo,Di,Mi,Do,Fr: 6:30 - 17:00","lunch":"Ja","info":"Journaldienst Kindergarten in den Semester- und Osterferien und an Fenstertagen<br />","summer":"Ja"},"gkz_41022":{"zip":4073,"name":"Wilhering","category":"A","nanny":"Ja","creche":"Ja","afternoon":"Ja","nonstop":"Ja","open":"Mo,Di,Mi,Do: 6:45 - 16:00; Fr: 6:45 - 12:30","lunch":"Ja","info":"","summer":"Ja"},"gkz_41101":{"zip":4320,"name":"Allerheiligen i.M.","category":"D","nanny":"Ja","creche":"Ja","afternoon":"Nein","nonstop":"Nein","open":"Mo,Di,Do: 7:00 - 16:00; Mi,Fr: 7:00 - 12:45","lunch":"Nein","info":"Mittagessen: Mo, Di, Do<br />NM-Betreuung VS- Kinder Mo, Di und Do bis 16:00 Uhr<br />","summer":"Nein"},"gkz_41102":{"zip":4341,"name":"Arbing","category":"A","nanny":"Ja","creche":"Ja","afternoon":"Ja","nonstop":"Ja","open":"Mo,Di,Mi,Do: 7:00 - 16:00; Fr: 7:00 - 12:30","lunch":"Ja","info":"Kooperation Sommerbetreuung Kindergarten mit Mitterkirchen i.M. und Saxen<br />","summer":"Ja"},"gkz_41103":{"zip":4342,"name":"Baumgartenberg","category":"A","nanny":"Ja","creche":"Ja","afternoon":"Ja","nonstop":"Ja","open":"Mo,Di,Mi,Do: 7:00 - 16:30; Fr: 7:00 - 12:30","lunch":"Ja","info":"Journaldienst Unter-Dreij&auml;hrige in den Semster- und Osterferien und an Fenstertagen<br />Kooperation Sommerbetreuung Kindergarten mit Mitterkirchen i.M.<br />Kooperation Sommerbetreuung VS-Kinder mit Mitterkirchen i.M.<br />","summer":"Ja"},"gkz_41104":{"zip":4371,"name":"Dimbach","category":"C","nanny":"Nein","creche":"Ja","afternoon":"Ja","nonstop":"Nein","open":"Mo,Di,Mi,Fr: 7:30 - 12:30; Do: 7:30 - 17:00","lunch":"Nein","info":"Mittagessen: Do<br />","summer":"Nein"},"gkz_41105":{"zip":4360,"name":"Grein","category":"A","nanny":"Nein","creche":"Ja","afternoon":"Ja","nonstop":"Ja","open":"Mo,Di,Mi,Do: 7:30 - 16:00; Fr: 7:30 - 12:30","lunch":"Ja","info":"Kooperation Sommerbetreuung Kindergarten mit Saxen <br />Kooperation Sommerbetreuung VS-Kinder mit Saxen <br />","summer":"Ja"},"gkz_41106":{"zip":4223,"name":"Katsdorf","category":"1A","nanny":"Ja","creche":"Ja","afternoon":"Ja","nonstop":"Ja","open":"Mo,Di,Mi,Do: 7:00 - 17:00; Fr: 7:00 - 15:00","lunch":"Ja","info":"Journaldienst Unter-Dreij&auml;hrige in den Semster-, Oster- und Weihnachtferien und an Fenstertagen <br />Journaldienst Kindergarten in den Semster-, Oster- und Weihnachtferien und an Fenstertagen <br />","summer":"Ja"},"gkz_41107":{"zip":4352,"name":"Klam","category":"A","nanny":"Ja","creche":"Ja","afternoon":"Ja","nonstop":"Ja","open":"Mo,Di,Mi,Do: 7:00 - 17:00; Fr: 7:00 - 13:00","lunch":"Ja","info":"Kooperation Unter-Dreij&auml;hrige mit Saxen <br />","summer":"Nein"},"gkz_41108":{"zip":4362,"name":"Bad Kreuzen","category":"D","nanny":"Nein","creche":"Ja","afternoon":"Nein","nonstop":"Nein","open":"Mo,Mi,Fr: 7:15 - 12:45; Di,Do: 7:15 - 15:30","lunch":"Nein","info":"Mittagessen: Di, Do<br /> NM-Betreuung VS-Kinder Mo, Mi, Do bis 16:00 Uhr<br />","summer":"Nein"},"gkz_41109":{"zip":4222,"name":"Langenstein","category":"1A","nanny":"Nein","creche":"Ja","afternoon":"Ja","nonstop":"Ja","open":"Mo,Di,Mi,Do,Fr: 6:30 - 16:00","lunch":"Ja","info":"Kooperation Sommerbetreuung Kindergarten mit Sankt Georgen a.d.G. <br />","summer":"Ja"},"gkz_41110":{"zip":4225,"name":"Luftenberg a.d.D.","category":"1A","nanny":"Nein","creche":"Ja","afternoon":"Ja","nonstop":"Ja","open":"Mo,Di,Mi,Do: 7:00 - 17:00; Fr: 7:00 - 15:00","lunch":"Ja","info":"Unter-Dreij&auml;hrige ganzj&auml;hrig ge&ouml;ffnet<br />Kindergarten ganzj&auml;hrig ge&ouml;ffnet<br />","summer":"Ja"},"gkz_41111":{"zip":4310,"name":"Mauthausen","category":"1A","nanny":"Nein","creche":"Ja","afternoon":"Ja","nonstop":"Ja","open":"Mo,Di,Mi,Do: 6:30 - 17:00; Fr: 6:30 - 16:00","lunch":"Ja","info":"Unter-Dreij&auml;hrige ganzj&auml;hrig ge&ouml;ffnet<br />Kindergarten ganzj&auml;hrig ge&ouml;ffnet<br />","summer":"Ja"},"gkz_41112":{"zip":4343,"name":"Mitterkirchen i.M.","category":"A","nanny":"Ja","creche":"Ja","afternoon":"Ja","nonstop":"Ja","open":"Mo,Di,Mi: 7:00 - 17:00; Do: 7:00 - 16:00; Fr: 7:00 - 12:30","lunch":"Ja","info":"Kooperation Unter-Dreij&auml;hrige mit Naarn i.M. <br />","summer":"Ja"},"gkz_41113":{"zip":4323,"name":"MÃ¼nzbach","category":"B","nanny":"Nein","creche":"Ja","afternoon":"Ja","nonstop":"Nein","open":"Mo,Di: 7:15 - 13:00; Mi: 7:15 - 16:00; Do,Fr: 7:15 - 12:45","lunch":"Ja","info":"","summer":"Nein"},"gkz_41114":{"zip":4331,"name":"Naarn i.M.","category":"A","nanny":"Ja","creche":"Ja","afternoon":"Ja","nonstop":"Ja","open":"Mo,Di,Mi: 7:00 - 15:30; Do: 7:30 - 15:30; Fr: 7:30 - 13:30","lunch":"Ja","info":"","summer":"Ja"},"gkz_41115":{"zip":4363,"name":"Pabneukirchen","category":"C","nanny":"Nein","creche":"Ja","afternoon":"Ja","nonstop":"Nein","open":"Mo,Mi,Fr: 7:00 - 12:30; Di,Do: 7:00 - 16:00","lunch":"Nein","info":"Mittagessen: Di, Do<br />","summer":"Nein"},"gkz_41116":{"zip":4320,"name":"Perg","category":"A","nanny":"Ja","creche":"Ja","afternoon":"Ja","nonstop":"Ja","open":"Mo,Di,Mi,Do: 7:00 - 16:00; Fr: 7:00 - 15:30","lunch":"Ja","info":"Unter-Dreij&auml;hrige ganzj&auml;hrig ge&ouml;ffnet ausgenommen letzte Augustwoche <br />Kindergarten ganzj&auml;hrig ge&ouml;ffnet ausgenommen letzte Augustwoche <br />Kooperation Sommerbetreuung VS-Kinder mit Mitterkirchen i.M.; Journaldienst VS-Kinder in den Semster- und Osterferien und an Fenstertagen<br />","summer":"Ja"},"gkz_41117":{"zip":4324,"name":"Rechberg","category":"E","nanny":"Ja","creche":"Nein","afternoon":"Nein","nonstop":"Nein","open":"Mo,Di,Do,Fr: 7:15 - 13:00; Mi: 7:15 - 16:00","lunch":"Nein","info":"Journaldienst Unter-Dreij&auml;hrige ausgenommen Semesterferien<br />Mittagessen: Mi; Journaldienst Kindergarten ausgenommen Sommerferien<br />","summer":"Nein"},"gkz_41118":{"zip":4312,"name":"Ried i.d.R.","category":"1A","nanny":"Nein","creche":"Ja","afternoon":"Ja","nonstop":"Ja","open":"Mo: 6:45 - 16:30; Di,Do,Fr: 6:45 - 16:00; Mi: 6:45 - 17:00","lunch":"Ja","info":"Kooperation Sommerbetreuung Kindergarten mit Schwertberg<br />","summer":"Ja"},"gkz_41119":{"zip":4372,"name":"St. Georgen a.W.","category":"C","nanny":"Nein","creche":"Ja","afternoon":"Ja","nonstop":"Nein","open":"Mo,Di,Do,Fr: 7:00 - 12:30; Mi: 7:00 - 16:30","lunch":"Nein","info":"Mittagessen: Mi<br />","summer":"Nein"},"gkz_41120":{"zip":4222,"name":"St. Georgen a.d.G.","category":"1A","nanny":"Ja","creche":"Ja","afternoon":"Ja","nonstop":"Ja","open":"Mo,Di,Mi,Do,Fr: 6:30 - 16:00","lunch":"Ja","info":"","summer":"Ja"},"gkz_41121":{"zip":4381,"name":"St. Nikola a.d.D.","category":"E","nanny":"Nein","creche":"Nein","afternoon":"Nein","nonstop":"Nein","open":"Mo,Di,Mi,Do,Fr: 7:30 - 13:00","lunch":"Nein","info":"","summer":"Nein"},"gkz_41122":{"zip":4364,"name":"St. Thomas a.B.","category":"C","nanny":"Nein","creche":"Ja","afternoon":"Nein","nonstop":"Nein","open":"Mo,Mi,Do,Fr: 7:15 - 12:45; Di: 7:15 - 15:00","lunch":"Ja","info":"Kooperation Sommerbetreuung Kindergarten mit Perg<br />","summer":"Ja"},"gkz_41123":{"zip":4351,"name":"Saxen","category":"A","nanny":"Ja","creche":"Ja","afternoon":"Ja","nonstop":"Ja","open":"Mo,Di,Mi,Do: 7:00 - 16:00; Fr: 7:00 - 13:00","lunch":"Ja","info":"","summer":"Ja"},"gkz_41124":{"zip":4311,"name":"Schwertberg","category":"1A","nanny":"Nein","creche":"Ja","afternoon":"Ja","nonstop":"Ja","open":"Mo,Di,Mi,Do: 6:30 - 17:30; Fr: 6:30 - 15:00","lunch":"Ja","info":"","summer":"Ja"},"gkz_41125":{"zip":4391,"name":"Waldhausen i.S.","category":"C","nanny":"Nein","creche":"Ja","afternoon":"Ja","nonstop":"Nein","open":"Mo,Fr: 7:00 - 12:30; Di,Mi,Do: 7:00 - 16:00","lunch":"Nein","info":"Mittagessen: Di, Mi, Do<br />","summer":"Nein"},"gkz_41126":{"zip":4322,"name":"Windhaag b.P.","category":"B","nanny":"Ja","creche":"Ja","afternoon":"Ja","nonstop":"Nein","open":"Mo,Mi,Fr: 7:00 - 13:00; Di,Do: 7:00 - 16:00","lunch":"Ja","info":"","summer":"Nein"},"gkz_41201":{"zip":4754,"name":"Andrichsfurt","category":false},"gkz_41202":{"zip":4980,"name":"Antiesenhofen","category":"C","nanny":"Ja","creche":"Ja","afternoon":"Nein","nonstop":"Nein","open":"Mo,Do,Fr: 7:00 - 13:00; Di,Mi: 7:00 - 14:00","lunch":"Ja","info":"NM-Betreuung VS-Kinder Di, Do bis 14:00 Uhr<br />","summer":"Nein"},"gkz_41203":{"zip":4971,"name":"AurolzmÃ¼nster","category":"A","nanny":"Ja","creche":"Ja","afternoon":"Ja","nonstop":"Ja","open":"Mo,Di,Mi,Do: 7:00 - 16:00; Fr: 7:00 - 12:00","lunch":"Ja","info":"","summer":"Ja"},"gkz_41204":{"zip":4906,"name":"Eberschwang","category":"D","nanny":"Ja","creche":"Ja","afternoon":"Nein","nonstop":"Nein","open":"Mo,Mi,Fr: 7:00 - 12:30; Di,Do: 7:00 - 16:30","lunch":"Nein","info":"Mittagessen: Di, Do<br />NM-Betreuung VS-Kinder Di, Do bis 16:15 Uhr<br />","summer":"Nein"},"gkz_41205":{"zip":4971,"name":"Eitzing","category":false},"gkz_41206":{"zip":4922,"name":"Geiersberg","category":"E","nanny":"Ja","creche":"Nein","afternoon":"Nein","nonstop":"Nein","open":"Mo,Di,Mi,Fr: 7:15 - 13:00; Do: 7:15 - 15:15","lunch":"Nein","info":"Mittagessen: Do<br />","summer":"Nein"},"gkz_41207":{"zip":4943,"name":"Geinberg","category":"B","nanny":"Ja","creche":"Ja","afternoon":"Ja","nonstop":"Nein","open":"Mo: 7:00 - 13:00; Di: 7:00 - 14:45; Mi,Do: 7:00 - 15:00; Fr: 7:00 - 12:30","lunch":"Ja","info":"","summer":"Ja"},"gkz_41208":{"zip":4942,"name":"Gurten","category":"B","nanny":"Ja","creche":"Nein","afternoon":"Ja","nonstop":"Ja","open":"Mo,Di,Mi,Do,Fr: 7:00 - 17:00","lunch":"Ja","info":"","summer":"Nein"},"gkz_41209":{"zip":4921,"name":"Hohenzell","category":"D","nanny":"Ja","creche":"Nein","afternoon":"Ja","nonstop":"Nein","open":"Mo,Fr: 7:00 - 12:45; Di,Mi,Do: 7:00 - 16:00","lunch":"Nein","info":"Mittagessen Di, Mi, Do<br />","summer":"Nein"},"gkz_41210":{"zip":4982,"name":"Kirchdorf a.I.","category":false},"gkz_41211":{"zip":4932,"name":"Kirchheim i.I.","category":false},"gkz_41212":{"zip":4772,"name":"Lambrechten","category":"D","nanny":"Ja","creche":"Nein","afternoon":"Nein","nonstop":"Nein","open":"Mo,Mi,Do,Fr: 7:15 - 13:00; Di: 7:15 - 16:00","lunch":"Ja","info":"Betreuung Unter-Dreij&auml;hrige Mo, Di, Mi bis 13:00 Uhr<br />","summer":"Nein"},"gkz_41213":{"zip":4923,"name":"Lohnsburg a.K.","category":"D","nanny":"Ja","creche":"Ja","afternoon":"Nein","nonstop":"Nein","open":"Mo,Mi: 7:00 - 16:00; Di,Do,Fr: 7:00 - 13:00","lunch":"Nein","info":"Mittagessen: Mo, Mi<br />NM-Betreuung VS-Kinder Mo, Di, Mi bis 16:00 Uhr<br />","summer":"Nein"},"gkz_41214":{"zip":4941,"name":"Mehrnbach","category":"B","nanny":"Ja","creche":"Ja","afternoon":"Ja","nonstop":"Nein","open":"Mo,Fr: 6:30 - 14:00; Di,Mi,Do: 6:30 - 16:30","lunch":"Ja","info":"Journaldienst Unter-Dreij&auml;hrige in der ersten J&auml;nnerwoche, in den Semsterferien, 4 Tage in den Osterferien und an Fenstertagen<br />Journaldienst Kindergarten in der ersten J&auml;nnerwoche, in den Semsterferien, 4 Tage in den Osterferien und an Fenstertagen<br />","summer":"Ja"},"gkz_41215":{"zip":4931,"name":"Mettmach","category":"B","nanny":"Ja","creche":"Ja","afternoon":"Ja","nonstop":"Nein","open":"Mo,Mi: 7:00 - 14:00; Di,Do: 7:00 - 16:00; Fr: 7:00 - 13:00","lunch":"Ja","info":"","summer":"Ja"},"gkz_41216":{"zip":4982,"name":"MÃ¶rschwang","category":false},"gkz_41217":{"zip":4961,"name":"MÃ¼hlheim a.I.","category":"C","nanny":"Ja","creche":"Ja","afternoon":"Nein","nonstop":"Nein","open":"Mo,Di,Mi,Do,Fr: 7:00 - 13:30","lunch":"Ja","info":"Kooperation Sommerbetreuung Kindergarten mit Kirchdorf a.I. <br />Kooperation Sommerbetreuung VS-Kinder mit Kirchdorf a.I. <br />","summer":"Ja"},"gkz_41218":{"zip":4910,"name":"Neuhofen i.I.","category":"A","nanny":"Ja","creche":"Ja","afternoon":"Ja","nonstop":"Ja","open":"Mo,Di,Mi,Do: 7:00 - 16:30; Fr: 7:00 - 13:00","lunch":"Ja","info":"","summer":"Nein"},"gkz_41219":{"zip":4982,"name":"Obernberg a.I.","category":"A","nanny":"Ja","creche":"Ja","afternoon":"Ja","nonstop":"Ja","open":"Mo,Di,Mi,Do: 7:00 - 15:00; Fr: 7:00 - 13:00","lunch":"Ja","info":"Journaldienst Unter-Dreij&auml;hrige an Fenstertagen <br />Journaldienst Kindergarten an Fenstertagen<br />","summer":"Ja"},"gkz_41220":{"zip":4974,"name":"Ort i.I.","category":"B","nanny":"Ja","creche":"Nein","afternoon":"Ja","nonstop":"Ja","open":"Mo,Di,Mi,Do,Fr: 7:00 - 17:00","lunch":"Ja","info":"","summer":"Nein"},"gkz_41221":{"zip":4910,"name":"Pattigham","category":"D","nanny":"Ja","creche":"Ja","afternoon":"Nein","nonstop":"Nein","open":"Mo,Di,Mi,Do,Fr: 7:30 - 13:15","lunch":"Nein","info":"","summer":"Nein"},"gkz_41222":{"zip":4743,"name":"Peterskirchen","category":false},"gkz_41223":{"zip":4925,"name":"Pramet","category":false},"gkz_41224":{"zip":4981,"name":"Reichersberg","category":false},"gkz_41225":{"zip":4910,"name":"Ried i.I.","category":"1A","nanny":"Ja","creche":"Ja","afternoon":"Ja","nonstop":"Ja","open":"Mo,Di,Mi,Do,Fr: 6:45 - 17:15","lunch":"Ja","info":"","summer":"Ja"},"gkz_41226":{"zip":4983,"name":"St. Georgen b.O.","category":false},"gkz_41227":{"zip":4926,"name":"St. Marienkirchen a.H.","category":"C","nanny":"Ja","creche":"Ja","afternoon":"Ja","nonstop":"Nein","open":"Mo: 7:00 - 16:00; Di,Mi,Do,Fr: 7:00 - 13:00","lunch":"Nein","info":"Mittagessen: Mo<br />","summer":"Nein"},"gkz_41228":{"zip":4973,"name":"St. Martin i.I.","category":"1A","nanny":"Ja","creche":"Ja","afternoon":"Ja","nonstop":"Ja","open":"Mo,Di,Mi,Do: 6:45 - 16:15; Fr: 6:45 - 14:00","lunch":"Ja","info":"Journaldienst Unter-Dreij&auml;hrige in der ersten J&auml;nnerwoche, Osterferien und an Fenstertagen<br />Journaldienst Kindergarten in der ersten J&auml;nnerwoche, Osterferien und an Fenstertagen<br />","summer":"Ja"},"gkz_41229":{"zip":4920,"name":"Schildorn","category":"C","nanny":"Nein","creche":"Ja","afternoon":"Ja","nonstop":"Nein","open":"Mo,Di,Mi,Do,Fr: 7:15 - 13:00","lunch":"Nein","info":"Kooperation Sommerbetreuung Kindergarten mit Lohnsburg a.K., Pramet und Waldzell<br />Kooperation NM-Betreuung VS-Kinder mit Waldzell; Kooperation Sommerbetreuung VS-Kinder mit Lohnsburg a. K., Pramet und Waldzell<br />","summer":"Ja"},"gkz_41230":{"zip":4973,"name":"Senftenbach","category":false},"gkz_41231":{"zip":4753,"name":"Taiskirchen i.I.","category":"A","nanny":"Ja","creche":"Ja","afternoon":"Ja","nonstop":"Ja","open":"Mo,Di,Mi: 7:00 - 15:30; Do: 7:00 - 15:00; Fr: 7:00 - 12:30","lunch":"Ja","info":"Unter-Dreij&auml;hrige ganzj&auml;hrig ge&ouml;ffnet<br />Kindergarten ganzj&auml;hrig ge&ouml;ffnet<br />","summer":"Ja"},"gkz_41232":{"zip":4911,"name":"Tumeltsham","category":false},"gkz_41233":{"zip":4972,"name":"Utzenaich","category":"B","nanny":"Ja","creche":"Nein","afternoon":"Ja","nonstop":"Ja","open":"Mo,Di,Mi,Do: 7:00 - 16:30; Fr: 7:00 - 13:30","lunch":"Ja","info":"Kooperation Sommerbetreuung VS-Kinder mit Aurolzm&uuml;nster<br />","summer":"Nein"},"gkz_41234":{"zip":4924,"name":"Waldzell","category":"A","nanny":"Ja","creche":"Ja","afternoon":"Ja","nonstop":"Ja","open":"Mo,Di,Mi,Do: 7:00 - 16:30; Fr: 7:00 - 12:30","lunch":"Ja","info":"Kooperation Sommerbetreuung Kindergarten mit Lohnsburg a.K., Pramet und Schildorn <br />Kooperation Sommerbetreuung VS-Kinder mit Lohnsburg a.K., Pramet und Schildorn <br />","summer":"Ja"},"gkz_41235":{"zip":4984,"name":"Weilbach","category":false},"gkz_41236":{"zip":4942,"name":"Wippenham","category":"D","nanny":"Nein","creche":"Nein","afternoon":"Ja","nonstop":"Nein","open":"Mo,Di,Mi,Do,Fr: 7:15 - 13:15","lunch":"Nein","info":"Kooperation Kindergarten mit Senftenbach; Kooperation Sommerbetreuug Kindergarten mit Gurten<br />Kooperation NM-Betreuung VS-Kinder mit Mehrnbach<br />","summer":"Ja"},"gkz_41301":{"zip":4184,"name":"Afiesl","category":"C","nanny":"Ja","creche":"Ja","afternoon":"Ja","nonstop":"Nein","open":"Mo,Mi,Do,Fr: 7:00 - 13:00; Di: 7:00 - 16:00","lunch":"Nein","info":"Mittagessen: Di<br />Kooperation NM-Betreuung VS-Kinder mit Helfenberg und Vorderwei&szlig;enbach;<br />","summer":"Nein"},"gkz_41302":{"zip":4184,"name":"Ahorn","category":"A","nanny":"Ja","creche":"Ja","afternoon":"Ja","nonstop":"Ja","open":"Mo: 7:00 - 16:45; Di,Mi,Do: 7:00 - 16:00; Fr: 7:00 - 13:00","lunch":"Ja","info":"Kooperation Unter-Dreij&auml;hrige mit Oberneukirchen (Bezirk Urfahr-Umgebung)<br />Kooperation Kindergarten mit Oberneukirchen (Bezirk Urfahr-Umgebung)<br />Kooperation NM-Betreuung VS-Kinder mit Oberneukirchen (Bezirk Urfahr-Umgebung)<br />","summer":"Nein"},"gkz_41304":{"zip":4121,"name":"Altenfelden","category":"C","nanny":"Ja","creche":"Ja","afternoon":"Ja","nonstop":"Nein","open":"Mo,Mi,Do: 7:00 - 17:00; Di,Fr: 7:00 - 12:30","lunch":"Nein","info":"Kooperation Unter-Dreij&auml;hrige mit Kleinzell i.M.<br />Mittagessen: Mo, Mi, Do; Kooperation Sommerbetreuung Kindergarten mit St. Martin i.M. <br />","summer":"Ja"},"gkz_41305":{"zip":4122,"name":"Arnreit","category":"1A","nanny":"Ja","creche":"Ja","afternoon":"Ja","nonstop":"Ja","open":"Mo,Di,Mi,Do: 7:00 - 17:00; Fr: 7:00 - 13:00","lunch":"Ja","info":"","summer":"Nein"},"gkz_41306":{"zip":4152,"name":"Atzesberg","category":"A","nanny":"Nein","creche":"Ja","afternoon":"Ja","nonstop":"Ja","open":"Mo,Di,Mi,Do: 7:00 - 16:30; Fr: 7:00 - 12:30","lunch":"Ja","info":"Kooperation Unter-Dreij&auml;hrige mit Sarleinsbach<br />Kooperation Kindergarten mit Putzleinsdorf <br />Kooperation NM-Betreuung VS-Kinder mit Putzleinsdorf<br />","summer":"Nein"},"gkz_41307":{"zip":4171,"name":"Auberg","category":"C","nanny":"Ja","creche":"Ja","afternoon":"Ja","nonstop":"Nein","open":"Mo,Mi: 7:30 - 15:30; Di,Do,Fr: 7:30 - 12:15","lunch":"Nein","info":"Mittagessen: Mo, Mi<br />Kooperation NM-Betreuung VS-Kinder mit Haslach a.d.M. und St. Peter a.W.<br />","summer":"Nein"},"gkz_41309":{"zip":4170,"name":"Haslach a.d.M.","category":"C","nanny":"Ja","creche":"Ja","afternoon":"Nein","nonstop":"Nein","open":"Mo,Fr: 7:00 - 12:30; Di,Mi,Do: 7:00 - 16:00","lunch":"Ja","info":"NM-Betreuung VS-Kinder: Di, Mi, Do bis 16:10 Uhr<br />","summer":"Nein"},"gkz_41310":{"zip":4184,"name":"Helfenberg","category":"D","nanny":"Ja","creche":"Nein","afternoon":"Ja","nonstop":"Nein","open":"Mo,Mi,Fr: 7:30 - 12:30; Di,Do: 7:30 - 16:00","lunch":"Nein","info":"Mittagessen: Di, Do <br />","summer":"Nein"},"gkz_41311":{"zip":4132,"name":"HÃ¶rbich","category":"A","nanny":"Ja","creche":"Ja","afternoon":"Ja","nonstop":"Ja","open":"Mo,Di,Mi,Do: 7:00 - 16:30; Fr: 7:00 - 12:30","lunch":"Ja","info":"Kooperation Unter-Dreij&auml;hrige mit Lembach i.M.<br />Kooperation Kindergarten mit Putzleinsdorf <br />Kooperation NM-Betreuung VS-Kinder mit Lembach i.M. und Putzleinsdorf<br />","summer":"Ja"},"gkz_41312":{"zip":4142,"name":"Hofkirchen i.M.","category":"A","nanny":"Nein","creche":"Ja","afternoon":"Ja","nonstop":"Ja","open":"Mo,Di,Mi,Do: 7:00 - 16:15; Fr: 7:00 - 12:30","lunch":"Ja","info":"Kooperation Unter-Dreij&auml;hrige mit Neustift i.M., Oberkappel und Pfarrkirchen i.M.<br />","summer":"Nein"},"gkz_41313":{"zip":4162,"name":"Julbach","category":"A","nanny":"Ja","creche":"Ja","afternoon":"Ja","nonstop":"Ja","open":"Mo,Di,Mi,Do: 7:00 - 16:00; Fr: 7:00 - 12:45","lunch":"Ja","info":"","summer":"Nein"},"gkz_41314":{"zip":4131,"name":"Kirchberg o.d.D.","category":"D","nanny":"Nein","creche":"Ja","afternoon":"Nein","nonstop":"Nein","open":"Mo,Di: 7:30 - 17:00; Mi,Do,Fr: 7:30 - 12:30","lunch":"Nein","info":"Kooperation Sommerbetreuung Unter-Dreij&auml;hrige mit St. Martin i.M.<br />Mittagessen: Mo, Di; Kooperation Sommerbetreuung Kindergarten mit St. Martin i.M.<br />NM-Betreuung VS-Kinder: Mo, Di bis 17:00 Uhr; Kooperation Sommerbetreuung VS-Kinder mit St. Martin i.M.; <br />","summer":"Ja"},"gkz_41315":{"zip":4163,"name":"Klaffer a.H.","category":"B","nanny":"Nein","creche":"Ja","afternoon":"Ja","nonstop":"Nein","open":"Mo,Di,Mi,Do,Fr: 7:00 - 14:00","lunch":"Ja","info":"Kooperation Sommerbetreuung Unter-Dreij&auml;hrige mit Schwarzenberg a.B.<br />Kooperation Sommerbetreuung Kindergarten mit Schwarzenberg a.B.<br />Kooperation Sommerbetreuung VS-Kinder mit Schwarzenberg a.B.<br />","summer":"Nein"},"gkz_41316":{"zip":4115,"name":"Kleinzell i.M.","category":"C","nanny":"Nein","creche":"Ja","afternoon":"Ja","nonstop":"Nein","open":"Mo,Fr: 7:00 - 13:00; Di,Mi,Do: 7:00 - 17:00","lunch":"Nein","info":"Mittagessen: Di, Mi, Do; Kooperation Sommerbetreuung mit St. Martin i. M.<br />","summer":"Ja"},"gkz_41317":{"zip":4154,"name":"Kollerschlag","category":"E","nanny":"Ja","creche":"Nein","afternoon":"Nein","nonstop":"Nein","open":"Mo,Mi,Do,Fr: 7:00 - 12:30; Di: 7:00 - 16:00","lunch":"Nein","info":"Mittagessen: Di<br />","summer":"Ja"},"gkz_41318":{"zip":4132,"name":"Lembach i.M.","category":"A","nanny":"Ja","creche":"Ja","afternoon":"Ja","nonstop":"Ja","open":"Mo,Di,Mi,Do: 7:00 - 16:00; Fr: 7:00 - 12:30","lunch":"Ja","info":"","summer":"Nein"},"gkz_41319":{"zip":4170,"name":"Lichtenau i.M.","category":"C","nanny":"Nein","creche":"Ja","afternoon":"Nein","nonstop":"Nein","open":"Mo,Fr: 7:00 - 12:30; Di,Mi,Do: 7:00 - 16:00","lunch":"Ja","info":"Kooperation Unter-Dreij&auml;hrige mit Haslach a.d.M. <br />Kooperation Kindergarten mit Haslach a.d.M. <br />","summer":"Nein"},"gkz_41320":{"zip":4154,"name":"Nebelberg","category":"B","nanny":"Nein","creche":"Ja","afternoon":"Ja","nonstop":"Nein","open":"Mo,Fr: 7:15 - 12:45; Di: 7:15 - 14:30; Mi,Do: 7:15 - 15:00","lunch":"Ja","info":"Kooperation Unter-Dreij&auml;hrige mit Peilstein i.M. <br />Kooperation Kindergarten mit Peilstein i.M.<br />","summer":"Nein"},"gkz_41321":{"zip":4120,"name":"Neufelden","category":"C","nanny":"Nein","creche":"Ja","afternoon":"Ja","nonstop":"Nein","open":"Mo,Di,Do,Fr: 7:00 - 13:00; Mi: 7:00 - 17:00","lunch":"Nein","info":"Mittagessen: Mi<br />Kooperation NM-Betreuung VS-Kinder mit Altenfelden und Kleinzell i.M.<br />","summer":"Nein"},"gkz_41322":{"zip":4133,"name":"Niederkappel","category":false},"gkz_41323":{"zip":4174,"name":"Niederwaldkirchen","category":"B","nanny":"Nein","creche":"Ja","afternoon":"Ja","nonstop":"Nein","open":"Mo: 7:00 - 14:00; Di,Mi,Do: 7:00 - 16:00; Fr: 7:00 - 13:00","lunch":"Ja","info":"","summer":"Nein"},"gkz_41324":{"zip":4144,"name":"Oberkappel","category":"B","nanny":"Nein","creche":"Ja","afternoon":"Ja","nonstop":"Nein","open":"Mo,Mi: 7:15 - 16:30; Di,Do,Fr: 7:15 - 12:45","lunch":"Ja","info":"Kooperation Unter-Dreij&auml;hrige mit Hofkirchen i.M. und Pfarrkirchen i.M. <br />","summer":"Nein"},"gkz_41325":{"zip":4151,"name":"Oepping","category":"C","nanny":"Nein","creche":"Ja","afternoon":"Ja","nonstop":"Nein","open":"Mo,Di,Do: 7:00 - 16:00; Mi,Fr: 7:00 - 13:00","lunch":"Nein","info":"Kooperation Sommerbetreuung Unter-Dreij&auml;hrige mit Rohrbach-Berg<br />Mittagessen: Mo, Di, Do; Kooperation Sommerbetreuung Kindergarten mit Rohrbach-Berg<br />Kooperation Sommerbetreuung VS-Kinder mit Rohrbach-Berg<br />","summer":"Ja"},"gkz_41326":{"zip":4153,"name":"Peilstein i.M.","category":"B","nanny":"Nein","creche":"Ja","afternoon":"Ja","nonstop":"Nein","open":"Mo,Fr: 7:15 - 12:45; Di: 7:15 - 14:30; Mi,Do: 7:15 - 15:00","lunch":"Ja","info":"","summer":"Nein"},"gkz_41327":{"zip":4141,"name":"Pfarrkirchen i. M.","category":"C","nanny":"Nein","creche":"Ja","afternoon":"Ja","nonstop":"Nein","open":"Mo: 7:30 - 17:00; Di,Do,Fr: 7:30 - 13:00; Mi: 7:30 - 16:00","lunch":"Nein","info":"Mittagessen: Mo, Mi<br />Kooperation NM-Betreuung VS-Kinder mit Hofkirchen i.M. <br />","summer":"Nein"},"gkz_41328":{"zip":4134,"name":"Putzleinsdorf","category":"B","nanny":"Ja","creche":"Nein","afternoon":"Ja","nonstop":"Ja","open":"Mo,Di,Mi,Do: 7:00 - 16:30; Fr: 7:00 - 12:30","lunch":"Ja","info":"Journaldienst Kindergarten in den Semster- und Osterferien und an Fenstertagen<br />","summer":"Ja"},"gkz_41329":{"zip":4143,"name":"Neustift i.M.","category":"C","nanny":"Nein","creche":"Ja","afternoon":"Ja","nonstop":"Nein","open":"Mo,Mi,Do,Fr: 7:00 - 13:00; Di: 7:00 - 16:00","lunch":"Nein","info":"Kooperation Unter-Dreij&auml;hrige mit Pfarrkirchen i.M.<br />Mittagessen: Di<br />","summer":"Nein"},"gkz_41331":{"zip":4172,"name":"St. Johann a.W.","category":"B","nanny":"Nein","creche":"Ja","afternoon":"Ja","nonstop":"Nein","open":"Mo,Do: 7:00 - 16:00; Di,Mi,Fr: 7:00 - 13:15","lunch":"Ja","info":"Kooperation Unter-Dreij&auml;hrige mit Niederwaldkirchen; Journaldienst Unter-Dreij&auml;hrige in den Semster- und Weihnachtsferien und an Fenstertagen<br />Journaldienst Kindergarten in den Semester- und Weihnachtsferien und an Fenstertagen<br />Journaldienst VS-Kinder in den Semster- und Weihnachtsferien und an Fenstertagen<br />","summer":"Ja"},"gkz_41332":{"zip":4113,"name":"St. Martin i. M.","category":"A","nanny":"Nein","creche":"Ja","afternoon":"Ja","nonstop":"Ja","open":"Mo,Di,Mi,Do: 7:00 - 16:00; Fr: 7:00 - 13:00","lunch":"Ja","info":"Journaldienst Unter-Dreij&auml;hrige in den Semester-, Osterferien und an Fenstertagen<br />Journaldienst Kindergarten in den Semester-, Osterferien und an Fenstertagen<br />","summer":"Ja"},"gkz_41333":{"zip":4170,"name":"St. Oswald b.H.","category":"D","nanny":"Nein","creche":"Nein","afternoon":"Nein","nonstop":"Nein","open":"Mo,Di,Mi,Do: 7:30 - 13:00; Fr: 7:30 - 12:45","lunch":"Ja","info":"","summer":"Nein"},"gkz_41334":{"zip":4171,"name":"St. Peter a.W.","category":"B","nanny":"Ja","creche":"Ja","afternoon":"Ja","nonstop":"Nein","open":"Mo,Di: 7:00 - 16:00; Mi,Fr: 7:00 - 13:00; Do: 7:00 - 16:30","lunch":"Ja","info":"","summer":"Ja"},"gkz_41335":{"zip":4170,"name":"St. Stefan a.W.","category":"D","nanny":"Ja","creche":"Ja","afternoon":"Nein","nonstop":"Nein","open":"Mo,Di,Mi,Fr: 7:00 - 13:00; Do: 7:00 - 16:00","lunch":"Nein","info":"Kooperation Unter-Dreij&auml;hrige mit Afiesl, Sch&ouml;negg und Vorderwei&szlig;enbach (Bezirk Urfahr-Umgebung)<br />Mittagessen: Do<br />NM-Betreuung VS-Kinder Do bis 17:00 Uhr<br />","summer":"Nein"},"gkz_41336":{"zip":4120,"name":"St. Ulrich i. M.","category":"B","nanny":"Ja","creche":"Ja","afternoon":"Nein","nonstop":"Nein","open":"Mo,Di: 7:00 - 16:00; Mi,Fr: 7:00 - 13:00; Do: 7:00 - 16:30","lunch":"Ja","info":"Kooperation Unter-Dreij&auml;hrige mit Niederwaldkirchen und St. Peter a.W. <br />Kooperation Kindergarten mit St. Peter a.W.<br />NM-Betreuung VS-Kinder Di, Mi, Do bis 16:00 Uhr<br />","summer":"Nein"},"gkz_41337":{"zip":4173,"name":"St. Veit i. M.","category":"B","nanny":"Nein","creche":"Ja","afternoon":"Ja","nonstop":"Nein","open":"Mo,Do: 7:00 - 15:30; Di: 7:00 - 16:00; Mi,Fr: 7:00 - 13:00","lunch":"Ja","info":"Kooperation Unter-Dreij&auml;hrige mit Niederwaldkirchen<br />Mittagessen: Mo, Di, Do; Journaldienst Kindergarten in den Semsterferien und letzte Juliwoche<br />","summer":"Nein"},"gkz_41338":{"zip":4152,"name":"Sarleinsbach","category":"A","nanny":"Ja","creche":"Ja","afternoon":"Ja","nonstop":"Ja","open":"Mo,Di,Mi,Do: 7:00 - 16:00; Fr: 7:00 - 13:00","lunch":"Ja","info":"Journaldienst Kindergarten in den Semester- und Osterferien<br />","summer":"Nein"},"gkz_41340":{"zip":4184,"name":"SchÃ¶negg","category":"C","nanny":"Ja","creche":"Ja","afternoon":"Ja","nonstop":"Nein","open":"Mo,Mi,Do,Fr: 7:00 - 13:00; Di: 7:00 - 16:00","lunch":"Nein","info":"Mittagessen: Di <br />Kooperation NM-Betreuung VS-Kinder mit Helfenberg und Vorderwei&szlig;enbach (Bezirk Urfahr-Umgebung)<br />","summer":"Nein"},"gkz_41341":{"zip":4164,"name":"Schwarzenberg a.B.","category":"B","nanny":"Nein","creche":"Ja","afternoon":"Ja","nonstop":"Nein","open":"Mo,Di,Mi,Do,Fr: 7:00 - 14:00","lunch":"Ja","info":"Kooperation Unter-Dreij&auml;hrige mit Klaffer a.H.; Kooperation Sommerbetreuung Unter-Dreij&auml;hrige mit Klaffer a.H.<br />Kooperation Kindergarten mit Klaffer a.H.; Kooperation Sommerbetreuung Kindergarten mit Klaffer a.H.<br />Kooperation NM-Betreuung VS-Kinder mit Klaffer a.H.; Kooperation Sommerbetreuung VS-Kinder mit Klaffer a.H.<br />","summer":"Nein"},"gkz_41342":{"zip":4161,"name":"Ulrichsberg","category":"A","nanny":"Ja","creche":"Ja","afternoon":"Ja","nonstop":"Ja","open":"Mo,Di,Mi,Do: 6:45 - 16:00; Fr: 6:45 - 12:15","lunch":"Ja","info":"","summer":"Nein"},"gkz_41343":{"zip":4160,"name":"Aigen-SchlÃ¤gl","category":"1A","nanny":"Ja","creche":"Ja","afternoon":"Ja","nonstop":"Ja","open":"Mo,Di,Mi,Do: 6:45 - 16:15; Fr: 6:45 - 13:45","lunch":"Ja","info":"","summer":"Nein"},"gkz_41344":{"zip":4150,"name":"Rohrbach-Berg","category":"A","nanny":"Ja","creche":"Ja","afternoon":"Ja","nonstop":"Ja","open":"Mo,Di: 7:00 - 16:00; Mi,Do: 7:00 - 16:30; Fr: 7:00 - 13:00","lunch":"Ja","info":"Journaldienst Kindergarten in der  1. J&auml;nner-Woche, in den Semester- und Osterferien und an Fenstertagen<br />","summer":"Ja"},"gkz_41401":{"zip":4721,"name":"Altschwendt","category":"C","nanny":"Ja","creche":"Ja","afternoon":"Nein","nonstop":"Nein","open":"Mo,Mi,Fr: 7:30 - 13:30; Di,Do: 7:30 - 14:30","lunch":"Ja","info":"Kooperation Sommerbetreuung Unter-Dreij&auml;hrige mit Raab<br />Kooperation Sommerbetreuung Kindergarten mit Raab<br />NM-Betreuung VS-Kinder Di, Do bis 16:30 Uhr<br />","summer":"Ja"},"gkz_41402":{"zip":4770,"name":"Andorf","category":"A","nanny":"Ja","creche":"Ja","afternoon":"Ja","nonstop":"Ja","open":"Mo,Di,Mi,Do: 7:00 - 16:00; Fr: 7:00 - 13:30","lunch":"Ja","info":"Unter-Dreij&auml;hrige ganzj&auml;hrig ge&ouml;ffnet<br />Kindergarten ganzj&auml;hrig ge&ouml;ffnet<br />","summer":"Ja"},"gkz_41403":{"zip":4786,"name":"Brunnenthal","category":"A","nanny":"Ja","creche":"Ja","afternoon":"Ja","nonstop":"Ja","open":"Mo,Di,Mi,Do: 7:00 - 16:00; Fr: 7:00 - 14:00","lunch":"Ja","info":"Kooperation Sommerbetreuung Kindergarten mit St. Florian a.I. und Sch&auml;rding <br />Kooperation Sommerbetreuung VS-Kinder mit St. Florian a.I. und Sch&auml;rding<br />","summer":"Ja"},"gkz_41404":{"zip":4776,"name":"Diersbach","category":"C","nanny":"Ja","creche":"Ja","afternoon":"Nein","nonstop":"Nein","open":"Mo: 7:30 - 15:30; Di,Mi,Do: 7:30 - 13:00; Fr: 7:30 - 12:30","lunch":"Ja","info":"Kooperation Sommerbetreuung Kindergarten mit Sigharting und Taufkirchen a.d.P. <br />","summer":"Ja"},"gkz_41405":{"zip":4751,"name":"Dorf a.d.Pram","category":"B","nanny":"Ja","creche":"Ja","afternoon":"Ja","nonstop":"Nein","open":"Mo,Mi,Do,Fr: 7:15 - 13:00; Di: 7:15 - 16:00","lunch":"Ja","info":"Kooperation Sommerbetreuung Kindergarten mit Riedau und Zell a.d.P. <br />Kooperation Sommerbetreuung VS-Kinder mit Riedau und Zell a. d. P.<br />","summer":"Ja"},"gkz_41406":{"zip":4773,"name":"Eggerding","category":false},"gkz_41407":{"zip":4090,"name":"Engelhartszell","category":"D","nanny":"Ja","creche":"Ja","afternoon":"Nein","nonstop":"Nein","open":"Mo,Di,Mi,Do,Fr: 7:30 - 12:30","lunch":"Nein","info":"Kooperation Sommerbetreuung Kindergarten mit St. Aegidi<br />NM-Betreuung VS-Kinder Mi, Do bis 17:00 Uhr; Kooperation Sommerbetreuung VS-Kinder mit St. Aegidi<br />","summer":"Ja"},"gkz_41408":{"zip":4761,"name":"Enzenkirchen","category":"B","nanny":"Ja","creche":"Ja","afternoon":"Ja","nonstop":"Nein","open":"Mo,Di,Mi,Do: 7:00 - 13:00; Fr: 7:00 - 12:00","lunch":"Ja","info":"","summer":"Nein"},"gkz_41409":{"zip":4092,"name":"Esternberg","category":"B","nanny":"Ja","creche":"Ja","afternoon":"Ja","nonstop":"Nein","open":"Mo,Do: 7:00 - 16:00; Di,Mi,Fr: 7:00 - 13:15","lunch":"Ja","info":"Kooperation Sommerbetreuung Kindergarten mit M&uuml;nzkirchen, St. Roman und Vichtenstein; Journaldienst Kindergarten in den Semesterferien und an Fenstertagen<br />Kooperation Sommerbetreuung VS-Kinder mit M&uuml;nzkirchen, St. Roman und Vichtenstein<br />","summer":"Ja"},"gkz_41410":{"zip":4785,"name":"Freinberg","category":"A","nanny":"Ja","creche":"Ja","afternoon":"Ja","nonstop":"Ja","open":"Mo,Di,Mi,Do: 7:15 - 16:00; Fr: 7:15 - 13:30","lunch":"Ja","info":"Kooperation Sommerbetreuung Kindergarten mit Schardenberg und Wernstein<br />Kooperation Sommerbetreuung VS-Kinder mit Schardenberg und Wernstein<br />","summer":"Ja"},"gkz_41411":{"zip":4794,"name":"Kopfing i.I.","category":"1A","nanny":"Ja","creche":"Ja","afternoon":"Ja","nonstop":"Ja","open":"Mo,Do: 6:45 - 17:00; Di,Mi: 6:45 - 16:15; Fr: 6:45 - 13:00","lunch":"Ja","info":"Kooperation Sommerbetreuung Unter-Dreij&auml;hrige mit St. Aegidi<br />Kooperation Sommerbetreuung Kindergarten mit St. Aegidi<br />Kooperation Sommerbetreuung VS-Kinder mit St. Aegidi<br />","summer":"Ja"},"gkz_41412":{"zip":4777,"name":"Mayrhof","category":"D","nanny":"Ja","creche":"Nein","afternoon":"Nein","nonstop":"Nein","open":"Mo,Mi,Do,Fr: 7:15 - 13:00; Di: 7:15 - 16:00","lunch":"Ja","info":"Kooperation Kindergarten mit Lambrechten (Bezirk Ried)<br />Kooperation NM-Betreuung VS-Kinder mit Eggerding; NM-Betreuung VS-Kinder Di bis 18:00 Uhr<br />","summer":"Nein"},"gkz_41413":{"zip":4792,"name":"MÃ¼nzkirchen","category":"A","nanny":"Ja","creche":"Ja","afternoon":"Ja","nonstop":"Ja","open":"Mo,Di,Mi,Do: 7:00 - 16:00; Fr: 7:00 - 13:30","lunch":"Ja","info":"Journaldienst Unter-Dreij&auml;hrige in den Semesterferien und an Fenstertagen<br />Kooperation Kindergarten Sommerbetreuung mit Esternberg, St.Roman und Vichtenstein; Journaldienst Kindergarten in den Semesterferien und an Fenstertagen<br />Kooperation Sommerbetreuung VS-Kinder mit Esternberg, St. Roman und Vichtenstein<br />","summer":"Ja"},"gkz_41414":{"zip":4760,"name":"Raab","category":"A","nanny":"Ja","creche":"Ja","afternoon":"Ja","nonstop":"Ja","open":"Mo,Di,Mi,Do: 7:00 - 16:00; Fr: 7:00 - 13:00","lunch":"Ja","info":"","summer":"Ja"},"gkz_41415":{"zip":4791,"name":"Rainbach i.I.","category":"B","nanny":"Ja","creche":"Ja","afternoon":"Ja","nonstop":"Nein","open":"Mo,Di,Mi,Do: 7:00 - 13:30; Fr: 7:00 - 12:30","lunch":"Ja","info":"","summer":"Nein"},"gkz_41416":{"zip":4752,"name":"Riedau","category":"A","nanny":"Ja","creche":"Ja","afternoon":"Ja","nonstop":"Ja","open":"Mo,Di,Mi,Do: 7:00 - 16:00; Fr: 7:00 - 13:00","lunch":"Ja","info":"Kooperation Sommerbetreuung Kindergarten mit Dorf a.d.P. und Zell a.d.P<br />Kooperation Sommerbetreuung VS-Kinder mit Dorf a.d.P. und Zell a.d.P<br />","summer":"Ja"},"gkz_41417":{"zip":4725,"name":"St. Aegidi","category":"C","nanny":"Nein","creche":"Ja","afternoon":"Nein","nonstop":"Nein","open":"Mo,Do,Fr: 7:30 - 13:00; Di,Mi: 7:30 - 16:00","lunch":"Ja","info":"Kooperation Sommerbetreuung Unter-Dreij&auml;hrige mit Engelhartszell, Eschenau (Bezirk Grieskirchen), Kopfing i.I., Natternbach (Bezirk Grieskirchen), Neukirchen a.W. (Bezirk Grieskirchen) und Waldkirchen a.W.<br />Kooperation Sommerbetreuung Kindergarten mit Engelhartszell, Eschenau (Bezirk Grieskirchen), Kopfing i.I., Natternbach (Bezirk Grieskirchen), Neukirchen a.W. (Bezirk Grieskirchen) und Waldkirchen a.W.<br />Kooperation Sommerbetreuung VS-Kinder mit Engelhartszell, Eschenau (Bezirk Grieskirchen), Kopfing i.I., Natternbach (Bezirk Grieskirchen), Neukirchen a.W. (Bezirk Grieskirchen) und Waldkirchen a.W.<br />","summer":"Ja"},"gkz_41418":{"zip":4782,"name":"St. Florian a.I.","category":"1A","nanny":"Ja","creche":"Ja","afternoon":"Ja","nonstop":"Ja","open":"Mo,Di,Mi,Do: 6:45 - 16:30; Fr: 6:45 - 14:00","lunch":"Ja","info":"Kooperation Sommerbetreuung Kindergarten mit Brunnenthal<br />Kooperation Sommerbetreuung VS-Kinder mit Engelhartszell, Eschenau (Bezirk Grieskirchen), Kopfing i.I., Natternbach (Bezirk Grieskirchen), Neukirchen a.W. (Bezirk Grieskirchen) und Waldkirchen a.W.<br />","summer":"Ja"},"gkz_41419":{"zip":4774,"name":"St. Marienkirchen b.S.","category":"B","nanny":"Ja","creche":"Ja","afternoon":"Ja","nonstop":"Nein","open":"Mo,Do: 7:15 - 16:00; Di,Mi: 7:15 - 13:30; Fr: 7:15 - 12:30","lunch":"Ja","info":"Kooperation Sommerbetreuung Kindergarten mit Eggerding, Lambrechten (Bezirk Ried), Mayrhof und Suben<br />Kooperation Sommerbetreuung VS-Kinder mit Eggerding, Lambrechten (Bezirk Ried), Mayrhof und Suben<br />","summer":"Ja"},"gkz_41420":{"zip":4793,"name":"St. Roman","category":"B","nanny":"Ja","creche":"Ja","afternoon":"Ja","nonstop":"Nein","open":"Mo,Di,Mi,Do,Fr: 7:30 - 13:00","lunch":"Ja","info":"Kooperation Sommerbetreuung Kindergarten mit Esternberg, M&uuml;nzkirchen und Vichtenstein<br /> Kooperation Sommerbetreuung VS-Kinder mit Esternberg, M&uuml;nzkirchen und Vichtenstein; Kooperation NM-Betreuung VS-Kinder mit M&uuml;nzkirchen<br />","summer":"Ja"},"gkz_41421":{"zip":4762,"name":"St. Willibald","category":"D","nanny":"Ja","creche":"Ja","afternoon":"Nein","nonstop":"Nein","open":"Mo,Di,Mi,Do,Fr: 7:15 - 12:30","lunch":"Nein","info":"Kooperation Sommerbetreuung Unter-Dreij&auml;hrige mit Raab; Journaldienst Unter-Dreij&auml;hrige in den Oster- und Weihnachtsferien<br />Kooperation Sommerbetreuung Kindergarten mit Raab<br />","summer":"Ja"},"gkz_41422":{"zip":4780,"name":"SchÃ¤rding","category":"1A","nanny":"Ja","creche":"Ja","afternoon":"Ja","nonstop":"Ja","open":"Mo,Di,Mi,Do: 6:45 - 16:15; Fr: 6:45 - 14:00","lunch":"Ja","info":"Kooperation Sommerbetreuung Kindergarten mit Brunnenthal und St. Florian a. I.<br />","summer":"Ja"},"gkz_41423":{"zip":4784,"name":"Schardenberg","category":"C","nanny":"Ja","creche":"Ja","afternoon":"Nein","nonstop":"Nein","open":"Mo,Fr: 7:15 - 13:15; Di,Mi,Do: 7:15 - 16:00","lunch":"Ja","info":"Kooperation Sommerbetreuung Unter-Dreij&auml;hrige mit Freinberg und Wernstein a.I.<br />Kooperation Sommerbetreuung Kindergarten mit Freinberg und Wernstein a.I.<br />Nachmittagsbetreuung VS-Kinder Di, Mi, Do bis 16:00 Uhr; Kooperation Sommerbetreuung VS-Kinder mit Freinberg und Wernstein a.I.<br />","summer":"Ja"},"gkz_41424":{"zip":4771,"name":"Sigharting","category":"D","nanny":"Ja","creche":"Ja","afternoon":"Nein","nonstop":"Nein","open":"Mo,Fr: 7:15 - 12:30; Di,Mi,Do: 7:15 - 18:00","lunch":"Nein","info":"Kooperation Sommerbetreuung Unter-Dreij&auml;hrige mit Diersbach und Taufkirchen a.d.P. <br />Mittagessen: Di, Mi, Do; Kooperation Sommerbetreuung Kindergarten mit Diersbach und Taufkirchen a.d.P. <br />NM-Betreuung VS-Kinder Di, Mi, Do bis 18 Uhr; Kooperation Sommerbetreuung VS-Kinder mit Diersbach und Taufkirchen a.d.P.<br />","summer":"Ja"},"gkz_41425":{"zip":4975,"name":"Suben","category":"B","nanny":"Nein","creche":"Ja","afternoon":"Ja","nonstop":"Nein","open":"Mo,Di,Mi,Do,Fr: 7:00 - 13:30","lunch":"Ja","info":"Kooperation Sommerbetreuung Kindergarten mit Eggerding,  Lambrechten (Bezirk Ried) und St. Marienkirchen a.d.P.<br />Kooperation Sommerbetreuung VS-Kinder mit Eggerding, Lambrechten (Bezirk Ried) und St. Marienkirchen a.d.P.<br />","summer":"Ja"},"gkz_41426":{"zip":4775,"name":"Taufkirchen a.d.P.","category":"A","nanny":"Ja","creche":"Ja","afternoon":"Ja","nonstop":"Ja","open":"Mo,Di,Mi,Do: 7:00 - 16:00; Fr: 7:00 - 12:30","lunch":"Ja","info":"Kooperation Sommerbetreuung Unter-Dreij&auml;hrige mit Diersbach und Sigharting <br />Kooperation Sommerbetreuung Kindergarten mit Diersbach und Sigharting <br />Kooperation Sommerbetreuung VS-Kinder mit Diersbach und Rainbach <br />","summer":"Ja"},"gkz_41427":{"zip":4091,"name":"Vichtenstein","category":"D","nanny":"Ja","creche":"Ja","afternoon":"Nein","nonstop":"Nein","open":"Mo,Di,Mi,Do,Fr: 7:30 - 13:00","lunch":"Nein","info":"Kooperation Sommerbetreuung Kindergarten mit Esternberg, M&uuml;nzkirchen und St. Roman<br />Kooperation Sommerbetreuung VS-Kinder mit Esternberg, M&uuml;nzkirchen und St. Roman<br />","summer":"Ja"},"gkz_41428":{"zip":4085,"name":"Waldkirchen a.W.","category":false},"gkz_41429":{"zip":4783,"name":"Wernstein a.I.","category":"B","nanny":"Ja","creche":"Ja","afternoon":"Ja","nonstop":"Nein","open":"Mo,Di,Mi,Do,Fr: 7:00 - 13:00","lunch":"Ja","info":"Kooperation Sommerbetreuung Kindergarten mit Freinberg <br />Kooperation Sommerbetreuung VS-Kinder mit Freinberg und Schardenberg<br />","summer":"Ja"},"gkz_41430":{"zip":4755,"name":"Zell a.d.Pram","category":"A","nanny":"Ja","creche":"Ja","afternoon":"Ja","nonstop":"Ja","open":"Mo,Di,Mi,Do: 7:15 - 16:00; Fr: 7:15 - 12:30","lunch":"Ja","info":"Kooperation Sommerbetreuung Kindergarten mit Dorf a.d.P. und Riedau<br />Kooperation Sommerbetreuung VS-Kinder mit Dorf a.d.P. und Riedau<br />","summer":"Ja"},"gkz_41501":{"zip":4541,"name":"Adlwang","category":"1A","nanny":"Ja","creche":"Ja","afternoon":"Ja","nonstop":"Ja","open":"Mo,Di,Mi,Do: 6:45 - 17:30; Fr: 6:45 - 17:00","lunch":"Ja","info":"Kooperation Sommerbetreuung Kindergarten mit Bad Hall, Pfarrkirchen b.B.H., Rohr i.K. und Waldneukirchen<br />Kooperation Sommerbetreuung VS-Kinder mit Bad Hall, Pfarrkirchen b.B.H., Rohr i.K. und Waldneukirchen<br />","summer":"Ja"},"gkz_41502":{"zip":4421,"name":"Aschach a.d.S.","category":"A","nanny":"Nein","creche":"Ja","afternoon":"Ja","nonstop":"Ja","open":"Mo,Di,Mi,Do: 7:00 - 16:00; Fr: 7:00 - 13:30","lunch":"Ja","info":" Kooperation Unter-Dreij&auml;hrige mit Garsten; Journaldienst Unter-Dreij&auml;hrige in den Semesterferien<br />Kooperation Sommerbetreuung Kindergarten mit Garsten; Journaldienst Kindergarten in den Semesterferien<br />Kooperation Sommerbetreuung VS-Kinder mit Garsten und Sierning<br />","summer":"Ja"},"gkz_41503":{"zip":4540,"name":"Bad Hall","category":"1A","nanny":"Nein","creche":"Ja","afternoon":"Ja","nonstop":"Ja","open":"Mo,Di,Mi,Do: 6:45 - 16:30; Fr: 6:45 - 14:00","lunch":"Ja","info":"Journaldienst Unter-Dreij&auml;hrige am Oster-, Pfingstdienstag und Allerseelen<br />Kooperation Sommerbetreuung Kindergarten mit Adlwang , Pfarrkirchen b.B.H., Rohr i.K. und Waldneukirchen; Journaldienst Kindergarten am Oster-, Pfingstdienstag und Allerseelen<br />Kooperation Sommerbetreuung VS-Kinder mit Adlwang, Pfarrkirchen b.B.H., Rohr i.K. und Waldneukirchen<br />","summer":"Ja"},"gkz_41504":{"zip":4407,"name":"Dietach","category":"A","nanny":"Ja","creche":"Ja","afternoon":"Ja","nonstop":"Ja","open":"Mo,Di,Mi,Do: 7:00 - 16:00; Fr: 7:00 - 12:30","lunch":"Ja","info":"Kooperation Sommerbetreuung Kindergarten mit Schiedlberg und Wolfern<br />Kooperation Sommerbetreuung VS-Kinder mit Schiedlberg und Wolfern<br />","summer":"Ja"},"gkz_41505":{"zip":3334,"name":"Gaflenz","category":"C","nanny":"Ja","creche":"Ja","afternoon":"Ja","nonstop":"Nein","open":"Mo,Di,Mi,Do,Fr: 6:45 - 13:15","lunch":"Nein","info":"Kooperation Unter-Dreij&auml;hrige mit Weyer<br />","summer":"Nein"},"gkz_41506":{"zip":4451,"name":"Garsten","category":"1A","nanny":"Ja","creche":"Ja","afternoon":"Ja","nonstop":"Ja","open":"Mo,Di,Mi,Do,Fr: 6:45 - 16:30","lunch":"Ja","info":"Kooperation Sommerbetreuung Kindergarten mit Steyr<br />","summer":"Ja"},"gkz_41507":{"zip":4463,"name":"GroÃŸraming","category":"C","nanny":"Ja","creche":"Ja","afternoon":"Ja","nonstop":"Nein","open":"Mo,Di,Mi: 7:15 - 16:00; Do,Fr: 7:15 - 13:00","lunch":"Nein","info":"Mittagessen: Mo, Di, Mi<br />","summer":"Nein"},"gkz_41508":{"zip":4461,"name":"Laussa","category":"E","nanny":"Ja","creche":"Nein","afternoon":"Nein","nonstop":"Nein","open":"Mo,Do: 7:15 - 16:30; Di,Mi,Fr: 7:15 - 13:00","lunch":"Nein","info":"Mittagessen: Mo, Do<br />NM-Betreuung VS-Kinder Mo und Do bis 16:30 Uhr <br />","summer":"Nein"},"gkz_41509":{"zip":4460,"name":"Losenstein","category":"E","nanny":"Ja","creche":"Nein","afternoon":"Nein","nonstop":"Nein","open":"Mo,Di,Mi,Do,Fr: 7:00 - 13:00","lunch":"Nein","info":"","summer":"Nein"},"gkz_41510":{"zip":4443,"name":"Maria Neustift","category":"B","nanny":"Ja","creche":"Nein","afternoon":"Ja","nonstop":"Ja","open":"Mo,Di,Mi,Do,Fr: 7:00 - 16:00","lunch":"Ja","info":"","summer":"Nein"},"gkz_41511":{"zip":4540,"name":"Pfarrkirchen b.B.H.","category":"A","nanny":"Ja","creche":"Ja","afternoon":"Ja","nonstop":"Ja","open":"Mo,Di,Mi,Do: 7:00 - 16:00; Fr: 7:00 - 13:00","lunch":"Ja","info":"Journaldienst Unter-Dreij&auml;hrige in den Semesterferien und an Fenstertagen;<br /> Journaldienst Kindergarten in den Semesterferien und an Fenstertagen<br />","summer":"Ja"},"gkz_41512":{"zip":4462,"name":"Reichraming","category":"E","nanny":"Ja","creche":"Nein","afternoon":"Nein","nonstop":"Nein","open":"Mo,Mi,Fr: 7:00 - 12:45; Di,Do: 7:00 - 17:00","lunch":"Nein","info":"Mittagessen: Di, Do<br />NM-Betreuung VS-Kinder Di und Do bis 17:00 Uhr<br />","summer":"Nein"},"gkz_41513":{"zip":4532,"name":"Rohr i.K.","category":"B","nanny":"Nein","creche":"Ja","afternoon":"Ja","nonstop":"Nein","open":"Mo: 7:00 - 14:30; Di,Mi,Do: 7:00 - 16:00; Fr: 7:00 - 13:00","lunch":"Ja","info":"Kooperation Sommerbetreuung Kindergarten mit Pfarrkirchen b.B.H.<br />Kooperation Sommerbetreuung VS-Kinder mit Waldneukirchen<br />","summer":"Ja"},"gkz_41514":{"zip":4400,"name":"St. Ulrich b.S.","category":"A","nanny":"Ja","creche":"Ja","afternoon":"Ja","nonstop":"Ja","open":"Mo,Di,Mi,Do: 7:00 - 16:00; Fr: 7:00 - 13:00","lunch":"Ja","info":"Kooperation Sommerbetreuung Unter-Dreij&auml;hrige mit Garsten und Steyr<br />Kooperation Sommerbetreuung Kindergarten mit Garsten<br />","summer":"Ja"},"gkz_41515":{"zip":4521,"name":"Schiedlberg","category":"A","nanny":"Nein","creche":"Ja","afternoon":"Ja","nonstop":"Ja","open":"Mo,Di,Mi,Do: 7:00 - 16:00; Fr: 7:00 - 13:00","lunch":"Ja","info":"Kooperation Sommerbetreuung Kindergarten mit Dietach und Wolfern<br />Kooperation Sommerbetreuung VS-Kinder mit Dietach und Wolfern<br />","summer":"Ja"},"gkz_41516":{"zip":4522,"name":"Sierning","category":"1A","nanny":"Ja","creche":"Ja","afternoon":"Ja","nonstop":"Ja","open":"Mo,Di,Mi,Do: 7:00 - 16:30; Fr: 7:00 - 15:00","lunch":"Ja","info":"","summer":"Ja"},"gkz_41517":{"zip":4452,"name":"Ternberg","category":"A","nanny":"Ja","creche":"Ja","afternoon":"Ja","nonstop":"Ja","open":"Mo,Di,Mi,Do: 7:15 - 16:00; Fr: 7:15 - 11:45","lunch":"Ja","info":"","summer":"Ja"},"gkz_41518":{"zip":4595,"name":"Waldneukirchen","category":"A","nanny":"Nein","creche":"Ja","afternoon":"Ja","nonstop":"Ja","open":"Mo,Di,Mi,Do: 7:00 - 16:00; Fr: 7:00 - 13:00","lunch":"Ja","info":"Kooperation Sommerbetreuung Kindergarten mit Adlwang,  Bad Hall, Pfarrkirchen b.B.H und Rohr i.K.<br />Kooperation Sommerbetreuung VS-Kinder mit Adlwang, Bad Hall, Pfarrkirchen b.B.H. und Rohr i.K. <br />","summer":"Ja"},"gkz_41521":{"zip":4493,"name":"Wolfern","category":"A","nanny":"Ja","creche":"Ja","afternoon":"Ja","nonstop":"Ja","open":"Mo,Di,Mi,Do: 7:00 - 16:00; Fr: 7:00 - 14:00","lunch":"Ja","info":"Kooperation Unter-Dreij&auml;hrige mit Dietach; Journaldienst Unter-Dreij&auml;hrige in den Semesterferien<br />Kooperation Sommerbetreuung Kindergarten  mit Dietach; Journaldienst Kindergarten in den Osterferien<br />","summer":"Ja"},"gkz_41522":{"zip":3335,"name":"Weyer","category":"1A","nanny":"Ja","creche":"Ja","afternoon":"Ja","nonstop":"Ja","open":"Mo,Di,Mi,Do: 6:30 - 16:00; Fr: 6:30 - 14:00","lunch":"Ja","info":"","summer":"Nein"},"gkz_41601":{"zip":4211,"name":"Alberndorf i.d.R.","category":"A","nanny":"Ja","creche":"Ja","afternoon":"Ja","nonstop":"Ja","open":"Mo,Di,Mi,Do: 7:00 - 16:00; Fr: 7:00 - 15:00","lunch":"Ja","info":"Kooperation Sommerbetreuung Kindergarten Leader-Region Sterngartl-Gusental<br />Kooperation Sommerbetreuung VS-Kinder mit Engerwitzdorf<br />","summer":"Ja"},"gkz_41602":{"zip":4203,"name":"Altenberg","category":"A","nanny":"Nein","creche":"Ja","afternoon":"Ja","nonstop":"Ja","open":"Mo,Di,Mi,Do: 7:00 - 16:00; Fr: 7:00 - 15:00","lunch":"Ja","info":"Kooperation Sommerbetreuung Unter-Dreij&auml;hrige mit Gallneukirchen; Journaldienst Unter-Dreij&auml;hrige in den Semester-, Osterferien, Pfingstdienstag und Allerseelen <br /> Kooperation Sommerbetreuung Kindergarten mit Gallneukirchen; Journaldienst Kindergarten in den Semester-, Osterferien, Pfingstdienstag und Allerseelen <br />","summer":"Ja"},"gkz_41603":{"zip":4190,"name":"Bad Leonfelden","category":"A","nanny":"Ja","creche":"Ja","afternoon":"Ja","nonstop":"Ja","open":"Mo,Di,Mi,Do: 7:00 - 16:00; Fr: 7:00 - 13:00","lunch":"Ja","info":"","summer":"Nein"},"gkz_41604":{"zip":4201,"name":"Eidenberg","category":"A","nanny":"Nein","creche":"Ja","afternoon":"Ja","nonstop":"Ja","open":"Mo,Do: 7:00 - 16:00; Di,Mi: 7:00 - 15:00; Fr: 7:00 - 13:00","lunch":"Ja","info":"Kooperation Sommerbetreuung Kindergarten mit Region uwe<br />","summer":"Ja"},"gkz_41605":{"zip":4209,"name":"Engerwitzdorf","category":"1A","nanny":"Ja","creche":"Ja","afternoon":"Ja","nonstop":"Ja","open":"Mo,Di,Mi,Do: 6:30 - 17:00; Fr: 7:00 - 16:00","lunch":"Ja","info":"Journaldienst Unter-Dreij&auml;hrige in den Osterferien und Pfingstdienstag<br />Kooperation Sommerbetreuung Kindergarten mit Gallneukirchen <br />Kooperation Sommerbetreuung VS-Kinder mit Leader-Region Sterngartl-Gusental<br />","summer":"Ja"},"gkz_41606":{"zip":4101,"name":"Feldkirchen a.d.D.","category":"1A","nanny":"Ja","creche":"Ja","afternoon":"Ja","nonstop":"Ja","open":"Mo,Di,Mi,Do: 7:00 - 18:00; Fr: 7:00 - 15:30","lunch":"Ja","info":"Kooperation Sommerbetreuung Unter-Dreij&auml;hrige mit Region uwe<br />Kooperation Sommerbetreuung Kindergarten mit Region uwe<br />Kooperation Sommerbetreuung VS-Kinder mit Region uwe<br />","summer":"Ja"},"gkz_41607":{"zip":4210,"name":"Gallneukirchen","category":"A","nanny":"Ja","creche":"Ja","afternoon":"Ja","nonstop":"Ja","open":"Mo,Di,Mi,Do: 6:45 - 16:00; Fr: 6:45 - 15:00","lunch":"Ja","info":"Kooperation Sommerbetreuung  Kindergarten mit Altenberg, Engerwitzdorf und Katsdorf (Bezirk Perg)<br />","summer":"Ja"},"gkz_41608":{"zip":4102,"name":"GoldwÃ¶rth","category":"C","nanny":"Ja","creche":"Ja","afternoon":"Nein","nonstop":"Nein","open":"Mo,Di,Do: 7:15 - 16:00; Mi: 7:15 - 15:00; Fr: 7:15 - 13:00","lunch":"Ja","info":"Kooperation Sommerbetreuung Kindergarten mit Region uwe<br />NM-Betreuung VS-Kinder Di, Mi, Do bis 16:00 Uhr<br />","summer":"Ja"},"gkz_41609":{"zip":4201,"name":"Gramastetten","category":"1A","nanny":"Ja","creche":"Ja","afternoon":"Ja","nonstop":"Ja","open":"Mo,Di,Mi,Do: 7:00 - 17:00; Fr: 7:00 - 15:00","lunch":"Ja","info":"Kooperation Sommerbetreuung Unter-Dreij&auml;hrige mit Region uwe<br />Kooperation Sommerbetreuung Kindergarten mit Region uwe<br />Kooperation Sommerbetreuung VS-Kinder mit Region uwe<br />","summer":"Ja"},"gkz_41610":{"zip":4204,"name":"Haibach i. M.","category":"A","nanny":"Nein","creche":"Ja","afternoon":"Ja","nonstop":"Ja","open":"Mo,Di,Mi,Do: 7:00 - 16:00; Fr: 7:00 - 14:00","lunch":"Ja","info":"Kooperation Unter-Dreij&auml;hrige mit Reichenau i.M.<br />Kooperation Kindergarten mit Reichenau i.M.<br />Kooperation NM-Betreuung VS-Kinder mit Reichenau i.M.<br />","summer":"Nein"},"gkz_41611":{"zip":4202,"name":"HellmonsÃ¶dt","category":"A","nanny":"Ja","creche":"Ja","afternoon":"Ja","nonstop":"Ja","open":"Mo,Di,Mi,Do: 7:00 - 16:00; Fr: 7:00 - 14:00","lunch":"Ja","info":"","summer":"Nein"},"gkz_41612":{"zip":4175,"name":"Herzogsdorf","category":"B","nanny":"Ja","creche":"Ja","afternoon":"Ja","nonstop":"Nein","open":"Mo: 7:00 - 14:00; Di,Mi,Do: 7:00 - 16:00; Fr: 7:00 - 12:30","lunch":"Ja","info":"","summer":"Nein"},"gkz_41613":{"zip":4202,"name":"Kirchschlag b. L.","category":"1A","nanny":"Nein","creche":"Ja","afternoon":"Ja","nonstop":"Ja","open":"Mo,Di,Mi,Do: 7:00 - 16:30; Fr: 7:00 - 14:00","lunch":"Ja","info":"Journaldienst Unter-Dreij&auml;hrige in den Semesterferien und an Fenstertagen<br />Journaldienst Kindergarten in den Semesterferien und an Fenstertagen<br />","summer":"Ja"},"gkz_41614":{"zip":4040,"name":"Lichtenberg","category":"A","nanny":"Nein","creche":"Ja","afternoon":"Ja","nonstop":"Ja","open":"Mo,Di,Mi,Do: 7:00 - 16:00; Fr: 7:00 - 15:00","lunch":"Ja","info":"Kooperation Sommerbetreuung Unter-Dreij&auml;hrige mit Region uwe<br />Kooperation Sommerbetreuung Kindergarten mit Region uwe<br />Kooperation Sommerbetreuung VS-Kinder mit Region uwe<br />","summer":"Ja"},"gkz_41615":{"zip":4181,"name":"Oberneukirchen","category":"A","nanny":"Nein","creche":"Ja","afternoon":"Ja","nonstop":"Ja","open":"Mo: 7:00 - 16:45; Di,Mi,Do: 7:00 - 16:00; Fr: 7:00 - 13:00","lunch":"Ja","info":"Journaldienst Unter-Dreij&auml;hrige in den Semester-und Osterferien<br />Journaldienst Kindergarten in den Semester-und Osterferien<br />","summer":"Ja"},"gkz_41616":{"zip":4204,"name":"Ottenschlag i.M.","category":"A","nanny":"Ja","creche":"Ja","afternoon":"Ja","nonstop":"Ja","open":"Mo,Di,Mi,Do: 7:00 - 16:00; Fr: 7:00 - 15:00","lunch":"Ja","info":"Kooperation Unter-Dreij&auml;hrige mit Alberndorf i.d.R.; Kooperation Unter-Dreij&auml;hrige mit Leader-Region Sterngartl-Gusental<br />Kooperation Kindergarten mit Alberndorf i.d.R.; Kooperation Sommerbetreuung Kindergarten mit Leader-Region Sterngartl-Gusental<br />Kooperation NM-Betreuung VS-Kinder mit Alberndorf i.d.R.; Kooperation  Sommerbetreuung VS-Kinder mit Leader-Region Sterngartl-Gusental<br />","summer":"Ja"},"gkz_41617":{"zip":4100,"name":"Ottensheim","category":"A","nanny":"Nein","creche":"Ja","afternoon":"Ja","nonstop":"Ja","open":"Mo,Di,Mi,Do: 7:00 - 16:00; Fr: 7:00 - 14:00","lunch":"Ja","info":"Kooperation Sommerbetreuung Unter-Dreij&auml;hrige mit Region uwe<br />Kooperation Sommerbetreuung Kindergarten mit Region uwe<br />Kooperation Sommerbetreuung VS-Kinder mit Region uwe<br />","summer":"Ja"},"gkz_41618":{"zip":4048,"name":"Puchenau","category":"1A","nanny":"Ja","creche":"Ja","afternoon":"Ja","nonstop":"Ja","open":"Mo,Di,Mi,Do,Fr: 7:00 - 17:00","lunch":"Ja","info":"Kooperation Sommerbetreuung Kindergarten mit Region uwe<br />","summer":"Ja"},"gkz_41619":{"zip":4204,"name":"Reichenau i.M.","category":"A","nanny":"Ja","creche":"Ja","afternoon":"Ja","nonstop":"Ja","open":"Mo,Di,Mi,Do: 7:00 - 16:00; Fr: 7:00 - 14:00","lunch":"Ja","info":"","summer":"Nein"},"gkz_41620":{"zip":4193,"name":"Reichenthal","category":"A","nanny":"Ja","creche":"Ja","afternoon":"Ja","nonstop":"Ja","open":"Mo,Di,Mi,Do: 7:00 - 16:00; Fr: 7:00 - 12:30","lunch":"Ja","info":"","summer":"Ja"},"gkz_41621":{"zip":4112,"name":"St. Gotthard i.M.","category":"A","nanny":"Nein","creche":"Ja","afternoon":"Ja","nonstop":"Ja","open":"Mo,Di,Mi,Do: 7:00 - 16:00; Fr: 7:00 - 13:00","lunch":"Ja","info":"Kooperation Sommerbetreuung Unter-Dreij&auml;hrige mit Region uwe<br />Kooperation Sommerbetreuung Kindergarten mit Region uwe<br />","summer":"Ja"},"gkz_41622":{"zip":4192,"name":"Schenkenfelden","category":"A","nanny":"Nein","creche":"Ja","afternoon":"Ja","nonstop":"Ja","open":"Mo,Di,Mi,Do: 7:00 - 16:00; Fr: 7:00 - 12:30","lunch":"Ja","info":"Kooperation Sommerbetreuung VS-Kinder mit Reichenthal<br />","summer":"Nein"},"gkz_41623":{"zip":4180,"name":"Sonnberg i.M.","category":"A","nanny":"Ja","creche":"Ja","afternoon":"Ja","nonstop":"Ja","open":"Mo,Di,Mi,Do: 7:00 - 16:00; Fr: 7:00 - 14:00","lunch":"Ja","info":"Kooperation Unter-Dreij&auml;hrige mit Hellmonds&ouml;dt <br />Kooperation Kindergarten mit Hellmonds&ouml;dt<br />Kooperation NM-Betreuung VS-Kinder mit Hellmons&ouml;dt<br />","summer":"Nein"},"gkz_41624":{"zip":4221,"name":"Steyregg","category":"1A","nanny":"Ja","creche":"Ja","afternoon":"Ja","nonstop":"Ja","open":"Mo,Di,Mi,Do,Fr: 6:30 - 16:00","lunch":"Ja","info":"Journaldienst Unter-Dreij&auml;hrige in den Semester-, Oster-, Weihnachtsferien und an Fenstertagen<br />Journaldienst Kindergarten in den Semester-, Oster-, Weihnachtsferien und an Fenstertagen<br />Journaldienst VS-Kinder in den Semester-, Oster-, Weihnachtsferien und an Fenstertagen<br />","summer":"Ja"},"gkz_41625":{"zip":4191,"name":"VorderweiÃŸenbach","category":"C","nanny":"Nein","creche":"Ja","afternoon":"Ja","nonstop":"Nein","open":"Mo,Do: 7:00 - 16:00; Di,Mi,Fr: 7:00 - 12:30","lunch":"Nein","info":"Mittagessen: Mo, Do<br />","summer":"Nein"},"gkz_41626":{"zip":4111,"name":"Walding","category":false},"gkz_41627":{"zip":4180,"name":"Zwettl a.d. Rodl","category":"A","nanny":"Ja","creche":"Ja","afternoon":"Ja","nonstop":"Ja","open":"Mo,Di,Mi,Do: 7:00 - 16:00; Fr: 7:00 - 13:30","lunch":"Ja","info":"Kooperation Sommerbetreuung Unter-Dreij&auml;hrige mit Oberneukirchen<br />Kooperation Sommerbetreuung Kindergarten mit Kirchschlag b.L. und Oberneukirchen<br />Kooperation Sommerbetreuung VS-Kinder mit Oberneukirchen <br />","summer":"Ja"},"gkz_41701":{"zip":4843,"name":"Ampflwang i.H.","category":"A","nanny":"Ja","creche":"Ja","afternoon":"Ja","nonstop":"Ja","open":"Mo,Di,Mi,Do,Fr: 7:00 - 15:00","lunch":"Ja","info":"","summer":"Nein"},"gkz_41702":{"zip":4864,"name":"Attersee","category":"D","nanny":"Ja","creche":"Ja","afternoon":"Nein","nonstop":"Nein","open":"Mo,Mi,Fr: 7:30 - 13:00; Di,Do: 7:30 - 16:00","lunch":"Nein","info":"Mittagessen: Di, Do<br />NM-Betreuung VS-Kinder Di, Do bis 17:00 Uhr<br />","summer":"Nein"},"gkz_41703":{"zip":4800,"name":"Attnang-Puchheim","category":"1A","nanny":"Ja","creche":"Ja","afternoon":"Ja","nonstop":"Ja","open":"Mo,Di,Mi,Do,Fr: 6:45 - 17:00","lunch":"Ja","info":"Kooperation Sommerbetreuung Kindergarten mit V&ouml;cklabruck<br />Kooperation Sommerbetreuung VS-Kinder mit V&ouml;cklabruck<br />","summer":"Ja"},"gkz_41704":{"zip":4904,"name":"Atzbach","category":"A","nanny":"Ja","creche":"Ja","afternoon":"Ja","nonstop":"Ja","open":"Mo,Di,Mi,Do: 7:00 - 16:30; Fr: 7:00 - 12:30","lunch":"Ja","info":"","summer":"Nein"},"gkz_41705":{"zip":4861,"name":"Aurach a. Hongar","category":"C","nanny":"Ja","creche":"Nein","afternoon":"Ja","nonstop":"Nein","open":"Mo,Di,Mi,Do: 7:00 - 14:30; Fr: 7:00 - 13:00","lunch":"Ja","info":"Kooperation Sommerbetreuung Unter-Dreij&auml;hrige mit V&ouml;cklabruck<br />Kooperation Sommerbetreuung Kindergarten mit V&ouml;cklabruck; Journaldienst Kindergarten in den Semester-, Oster- und Weihnachtsferien; <br />","summer":"Ja"},"gkz_41706":{"zip":4880,"name":"Berg i. Attergau","category":"1A","nanny":"Nein","creche":"Ja","afternoon":"Ja","nonstop":"Ja","open":"Mo,Di,Mi,Do,Fr: 7:00 - 17:00","lunch":"Ja","info":"Kooperation Unter-Dreij&auml;hrige mit St. Georgen i.A. <br />Kooperation Kindergarten mit St. Georgen i.A. <br />Kooperation VS-Kinder mit St. Georgen i.A. <br />","summer":"Ja"},"gkz_41707":{"zip":4693,"name":"Desselbrunn","category":"A","nanny":"Ja","creche":"Ja","afternoon":"Ja","nonstop":"Ja","open":"Mo,Di,Mi,Do: 7:00 - 16:30; Fr: 7:00 - 13:00","lunch":"Ja","info":"Kooperation Unter-Dreij&auml;hrige mit R&uuml;storf<br />Kooperation Sommerbetreuung Kindergarten mit Schwanenstadt<br />","summer":"Ja"},"gkz_41708":{"zip":4892,"name":"Fornach","category":"C","nanny":"Ja","creche":"Ja","afternoon":"Ja","nonstop":"Nein","open":"Mo,Di,Mi,Do,Fr: 7:15 - 12:45","lunch":"Nein","info":"Kooperation Sommerbetreuung Unter-Dreij&auml;hrige mit V&ouml;cklamarkt<br />Mittagessen: Di; Kooperation Sommerbetreuung Kindergarten mit V&ouml;cklamarkt<br />","summer":"Ja"},"gkz_41709":{"zip":4873,"name":"Frankenburg a.H.","category":"A","nanny":"Ja","creche":"Ja","afternoon":"Ja","nonstop":"Ja","open":"Mo,Di,Mi,Do: 7:00 - 16:00; Fr: 7:00 - 13:00","lunch":"Ja","info":"","summer":"Nein"},"gkz_41710":{"zip":4890,"name":"Frankenmarkt","category":"1A","nanny":"Nein","creche":"Ja","afternoon":"Ja","nonstop":"Ja","open":"Mo,Di,Mi,Do: 7:00 - 16:30; Fr: 7:00 - 14:00","lunch":"Ja","info":"Kooperation Sommerbetreuung Unter-Dreij&auml;hrige mit V&ouml;cklamarkt<br />Kooperation Sommerbetreuung Kindergarten mit V&ouml;cklamarkt<br />Kooperation Sommerbetreuung VS-Kinder mit V&ouml;cklamarkt<br />","summer":"Ja"},"gkz_41711":{"zip":4851,"name":"Gampern","category":"1A","nanny":"Ja","creche":"Ja","afternoon":"Ja","nonstop":"Ja","open":"Mo,Di,Mi,Do: 6:45 - 16:30; Fr: 6:45 - 13:00","lunch":"Ja","info":"Kooperation Sommerbetreuung Unter-Dreij&auml;hrige mit V&ouml;cklamarkt<br />Kooperation Sommerbetreuung Kindergarten mit V&ouml;cklabruck<br />Kooperation Sommerbetreuung VS-Kinder mit Seewalchen a.A.<br />","summer":"Ja"},"gkz_41712":{"zip":5310,"name":"Innerschwand","category":"D","nanny":"Nein","creche":"Nein","afternoon":"Ja","nonstop":"Nein","open":"Mo,Di,Mi,Do,Fr: 7:15 - 13:30","lunch":"Nein","info":"","summer":"Nein"},"gkz_41713":{"zip":4860,"name":"Lenzing","category":"A","nanny":"Ja","creche":"Ja","afternoon":"Ja","nonstop":"Ja","open":"Mo,Di,Mi,Do: 7:00 - 15:30; Fr: 7:00 - 14:30","lunch":"Ja","info":"Kindergarten ganzj&auml;hrig ge&ouml;ffnet<br />","summer":"Ja"},"gkz_41714":{"zip":4901,"name":"Manning","category":"A","nanny":"Ja","creche":"Ja","afternoon":"Ja","nonstop":"Ja","open":"Mo,Di,Mi,Do,Fr: 7:00 - 16:00","lunch":"Ja","info":"Kooperation Unter-Dreij&auml;hrige mit Oberndorf a.H., Regau und Ungenach<br />Kooperation Kindergarten mit Ungenach <br />Kooperation VS-Kinder mit Atzbach, Ottnang a.H., Rutzenham und Ungenach<br />","summer":"Nein"},"gkz_41715":{"zip":5310,"name":"Mondsee","category":"A","nanny":"Ja","creche":"Ja","afternoon":"Ja","nonstop":"Ja","open":"Mo,Di,Mi,Do: 7:00 - 16:30; Fr: 7:00 - 13:00","lunch":"Ja","info":"","summer":"Nein"},"gkz_41716":{"zip":4872,"name":"Neukirchen a.d.V.","category":"B","nanny":"Ja","creche":"Ja","afternoon":"Ja","nonstop":"Nein","open":"Mo,Di,Do: 7:00 - 15:45; Mi: 7:00 - 13:30; Fr: 7:00 - 12:30","lunch":"Ja","info":"Kooperation Sommerbetreuung Unter-Dreij&auml;hrige mit V&ouml;cklamarkt <br />Kooperation Sommerbetreuung Kindergarten mit V&ouml;cklamarkt <br />","summer":"Ja"},"gkz_41717":{"zip":4692,"name":"Niederthalheim","category":"C","nanny":"Nein","creche":"Ja","afternoon":"Ja","nonstop":"Nein","open":"Mo,Mi,Fr: 7:00 - 13:00; Di,Do: 7:00 - 16:00","lunch":"Nein","info":"Mittagessen: Di, Do<br />","summer":"Nein"},"gkz_41718":{"zip":4865,"name":"NuÃŸdorf a.A.","category":"D","nanny":"Nein","creche":"Ja","afternoon":"Nein","nonstop":"Nein","open":"Mo,Mi,Fr: 7:15 - 12:30; Di,Do: 7:15 - 16:00","lunch":"Nein","info":"Kooperation Unter-Dreij&auml;hrige mit Attersee<br />Mittagessen: Di, Do<br />NM-Betreuung VS-Kinder Di, Do bis 16:00 Uhr<br />","summer":"Nein"},"gkz_41719":{"zip":4894,"name":"Oberhofen a.I.","category":"C","nanny":"Ja","creche":"Ja","afternoon":"Nein","nonstop":"Ja","open":"Mo,Fr: 7:30 - 12:30; Di,Mi,Do: 7:30 - 16:00","lunch":"Nein","info":"Mittagessen: Di, Mi, Do <br />","summer":"Nein"},"gkz_41720":{"zip":4690,"name":"Oberndorf b.S.","category":"B","nanny":"Ja","creche":"Ja","afternoon":"Ja","nonstop":"Nein","open":"Mo,Mi: 7:00 - 14:00; Di,Do: 7:00 - 16:00; Fr: 7:00 - 12:15","lunch":"Ja","info":"Kooperation Sommerbetreuung Kindergarten mit Schwanenstadt<br />Kooperation NM-Betreuung VS-Kinder mit Schwanenstadt<br />","summer":"Ja"},"gkz_41721":{"zip":4882,"name":"Oberwang","category":"A","nanny":"Ja","creche":"Ja","afternoon":"Ja","nonstop":"Ja","open":"Mo,Di,Mi,Do: 7:00 - 15:00; Fr: 7:00 - 13:00","lunch":"Ja","info":"","summer":"Nein"},"gkz_41722":{"zip":4901,"name":"Ottnang a.H.","category":"A","nanny":"Nein","creche":"Ja","afternoon":"Ja","nonstop":"Ja","open":"Mo,Di,Mi,Do,Fr: 7:00 - 16:00","lunch":"Ja","info":"","summer":"Nein"},"gkz_41723":{"zip":4870,"name":"Pfaffing","category":"E","nanny":"Nein","creche":"Nein","afternoon":"Nein","nonstop":"Nein","open":"Mo,Do,Fr: 7:00 - 13:00; Di,Mi: 7:00 - 16:00","lunch":"Nein","info":"Mittagessen: Di, Mi<br />NM-Betreuung VS-Kinder Mo,Do, Fr bis 13:00 Uhr und Di, Mi bis 16:00 Uhr<br />","summer":"Nein"},"gkz_41724":{"zip":4840,"name":"Pilsbach","category":"1A","nanny":"Nein","creche":"Ja","afternoon":"Ja","nonstop":"Ja","open":"Mo,Di,Mi,Do,Fr: 6:30 - 18:30","lunch":"Ja","info":"Kooperation Unter-Dreij&auml;hrige mit V&ouml;cklabruck<br />Kooperation Kindergarten mit V&ouml;cklabruck; Kooperation Sommerbetreuung Kindergarten mit V&ouml;cklabruck<br />Kooperation NM-Betreuung VS-Kinder mit V&ouml;cklabruck<br />","summer":"Ja"},"gkz_41725":{"zip":4690,"name":"Pitzenberg","category":"B","nanny":"Ja","creche":"Ja","afternoon":"Ja","nonstop":"Nein","open":"Mo,Mi: 7:30 - 16:00; Di: 7:30 - 16:30; Do: 7:30 - 15:00; Fr: 7:30 - 12:30","lunch":"Ja","info":"Kooperation Unter-Dreij&auml;hrige mit Oberndorf b.S.<br />Kooperation Kindergarten mit Rutzenham; Kooperation Sommerbetreuung Kindergarten mit Schwanenstadt<br />","summer":"Ja"},"gkz_41726":{"zip":4891,"name":"PÃ¶ndorf","category":"B","nanny":"Nein","creche":"Ja","afternoon":"Ja","nonstop":"Nein","open":"Mo,Mi: 7:15 - 15:30; Di,Do: 7:15 - 13:30; Fr: 7:15 - 12:30","lunch":"Ja","info":"Journaldienst Unter-Dreij&auml;hrige an Fenstertagen<br />Kooperation Sommerbetreuung Kindergarten mit V&ouml;cklamarkt; Journaldienst Kindergarten an Fenstertagen<br />Kooperation Sommerbetreuung VS-Kinder mit V&ouml;cklamarkt;<br />","summer":"Ja"},"gkz_41727":{"zip":4849,"name":"Puchkirchen a.T.","category":"D","nanny":"Ja","creche":"Ja","afternoon":"Nein","nonstop":"Nein","open":"Mo,Mi,Fr: 7:00 - 12:45; Di,Do: 7:00 - 16:30","lunch":"Nein","info":"Mittagessen: Di, Do<br />NM-Betreuung VS-Kinder Di, Do bis 16:30 Uhr<br />","summer":"Nein"},"gkz_41728":{"zip":4690,"name":"PÃ¼hret","category":"B","nanny":"Ja","creche":"Ja","afternoon":"Ja","nonstop":"Nein","open":"Mo,Mi: 7:30 - 16:00; Di: 7:30 - 16:30; Do: 7:30 - 15:00; Fr: 7:30 - 12:30","lunch":"Ja","info":"Kooperation Unter-Dreij&auml;hrige mit Oberndorf b.S. (Bezirk Salzburg-Umgebung)<br />Kooperation Kindergarten mit Rutzenham; Kooperation Sommerbetreuung Kindergarten mit Schwanenstadt<br />","summer":"Ja"},"gkz_41729":{"zip":4873,"name":"Redleiten","category":"A","nanny":"Nein","creche":"Ja","afternoon":"Ja","nonstop":"Ja","open":"Mo,Di,Mi,Do: 7:00 - 16:00; Fr: 7:00 - 13:00","lunch":"Ja","info":"Kooperation Unter-Dreij&auml;hrige mit Frankenburg a.H.<br />Kooperation Kindergarten mit Frankenburg a.H.<br />Kooperation NM-Betreuung VS-Kinder mit Frankenburg a.H.<br />","summer":"Nein"},"gkz_41730":{"zip":4690,"name":"Redlham","category":"A","nanny":"Ja","creche":"Ja","afternoon":"Ja","nonstop":"Ja","open":"Mo,Di,Mi,Do: 7:15 - 16:00; Fr: 7:15 - 12:30","lunch":"Ja","info":"Kooperation Sommerbetreuung Unter-Dreij&auml;hrige mit Schwanenstadt<br />Kooperation Sommerbetreuung Kindergarten mit Schwanenstadt<br />Kooperation NM-Betreuung VS-Kinder mit Schwanenstadt<br />","summer":"Ja"},"gkz_41731":{"zip":4844,"name":"Regau","category":"A","nanny":"Ja","creche":"Ja","afternoon":"Ja","nonstop":"Ja","open":"Mo,Di,Mi,Do: 7:00 - 16:00; Fr: 7:00 - 13:00","lunch":"Ja","info":"Journaldienst Unter-Dreij&auml;hrige in den Semster- und Osterferien und an Fenstertagen<br />Kooperation Sommerbetreuung Kindergarten mit V&ouml;cklabruck; Journaldienst Kindergarten in den Semster- und Osterferien<br />Journaldienst VS-Kinder in den Semster- und Osterferien<br />","summer":"Ja"},"gkz_41732":{"zip":4690,"name":"RÃ¼storf","category":"B","nanny":"Ja","creche":"Ja","afternoon":"Ja","nonstop":"Nein","open":"Mo,Mi: 7:15 - 15:00; Di,Do: 7:15 - 15:45; Fr: 7:15 - 12:30","lunch":"Ja","info":"Kooperation Sommerbetreuung Kindergarten mit Schwanenstadt<br />","summer":"Ja"},"gkz_41733":{"zip":4690,"name":"Rutzenham","category":"B","nanny":"Ja","creche":"Ja","afternoon":"Ja","nonstop":"Nein","open":"Mo,Mi: 7:30 - 16:00; Di: 7:30 - 16:30; Do: 7:30 - 15:00; Fr: 7:30 - 12:30","lunch":"Ja","info":"Kooperation Unter-Dreij&auml;hrige mit Oberndorf b.S.<br />Kooperation Sommerbetreuung Kindergarten mit Schwanenstadt<br />","summer":"Ja"},"gkz_41734":{"zip":4880,"name":"St. Georgen i.A.","category":"1A","nanny":"Ja","creche":"Ja","afternoon":"Ja","nonstop":"Ja","open":"Mo,Di,Mi,Do,Fr: 7:00 - 17:00","lunch":"Ja","info":"","summer":"Ja"},"gkz_41735":{"zip":5310,"name":"St. Lorenz","category":"1A","nanny":"Ja","creche":"Ja","afternoon":"Ja","nonstop":"Ja","open":"Mo,Di,Mi,Do: 7:00 - 17:00; Fr: 7:00 - 13:00","lunch":"Ja","info":"Kooperation Sommerbetreuung Kindergarten mit Tiefgraben<br />","summer":"Nein"},"gkz_41736":{"zip":4690,"name":"Schlatt","category":"D","nanny":"Ja","creche":"Nein","afternoon":"Nein","nonstop":"Nein","open":"Mo,Di,Do: 7:15 - 16:30; Mi: 7:15 - 14:00; Fr: 7:15 - 12:30","lunch":"Ja","info":"Kooperation Sommerbetreuung Kindergarten mit Schwanenstadt<br />","summer":"Ja"},"gkz_41737":{"zip":4861,"name":"SchÃ¶rfling a.A.","category":"A","nanny":"Ja","creche":"Ja","afternoon":"Ja","nonstop":"Ja","open":"Mo,Di,Mi,Do: 7:00 - 16:00; Fr: 7:00 - 13:30","lunch":"Ja","info":"Kooperation Sommerbetreuung Unter-Dreij&auml;hrige mit Seewalchen a.A.<br />","summer":"Nein"},"gkz_41738":{"zip":4690,"name":"Schwanenstadt","category":"A","nanny":"Ja","creche":"Ja","afternoon":"Ja","nonstop":"Ja","open":"Mo,Di,Mi,Do: 7:00 - 16:30; Fr: 7:00 - 12:30","lunch":"Ja","info":"","summer":"Ja"},"gkz_41739":{"zip":4863,"name":"Seewalchen a.A.","category":"A","nanny":"Ja","creche":"Ja","afternoon":"Ja","nonstop":"Ja","open":"Mo,Di,Mi,Do: 7:00 - 16:00; Fr: 7:00 - 13:30","lunch":"Ja","info":"","summer":"Ja"},"gkz_41740":{"zip":4853,"name":"Steinbach a.A.","category":"A","nanny":"Ja","creche":"Ja","afternoon":"Ja","nonstop":"Ja","open":"Mo,Di,Mi,Do: 7:15 - 16:30; Fr: 7:15 - 12:30","lunch":"Ja","info":"","summer":"Nein"},"gkz_41741":{"zip":4881,"name":"StraÃŸ i. A.","category":"C","nanny":"Ja","creche":"Nein","afternoon":"Nein","nonstop":"Ja","open":"Mo,Di,Mi,Do: 7:00 - 17:00; Fr: 7:00 - 13:00","lunch":"Ja","info":"Nachmittagsbetreuung VS-Kinder Mi, Do bis 17:00 Uhr<br />","summer":"Nein"},"gkz_41742":{"zip":5310,"name":"Tiefgraben","category":"A","nanny":"Ja","creche":"Ja","afternoon":"Ja","nonstop":"Ja","open":"Mo,Di,Mi,Do: 7:00 - 16:00; Fr: 7:00 - 13:00","lunch":"Ja","info":"Kooperation Unter-Dreij&auml;hrige mit St. Lorenz<br />","summer":"Nein"},"gkz_41743":{"zip":4850,"name":"Timelkam","category":"A","nanny":"Ja","creche":"Ja","afternoon":"Ja","nonstop":"Ja","open":"Mo,Di,Mi,Do,Fr: 7:00 - 16:00","lunch":"Ja","info":"","summer":"Nein"},"gkz_41744":{"zip":4841,"name":"Ungenach","category":"A","nanny":"Ja","creche":"Ja","afternoon":"Ja","nonstop":"Ja","open":"Mo,Di,Mi,Do,Fr: 7:00 - 16:00","lunch":"Ja","info":"","summer":"Nein"},"gkz_41745":{"zip":4866,"name":"Unterach a.A.","category":"A","nanny":"Nein","creche":"Ja","afternoon":"Ja","nonstop":"Ja","open":"Mo,Di,Mi,Do: 7:00 - 16:30; Fr: 7:00 - 12:30","lunch":"Ja","info":"","summer":"Nein"},"gkz_41746":{"zip":4840,"name":"VÃ¶cklabruck","category":"1A","nanny":"Ja","creche":"Ja","afternoon":"Ja","nonstop":"Ja","open":"Mo,Di,Mi,Do,Fr: 6:30 - 18:30","lunch":"Ja","info":"Unter-Dreij&auml;hrige ganzj&auml;hrig ge&ouml;ffnet<br />Kindergarten ganzj&auml;hrig ge&ouml;ffnet<br />","summer":"Ja"},"gkz_41747":{"zip":4870,"name":"VÃ¶cklamarkt","category":"1A","nanny":"Ja","creche":"Ja","afternoon":"Ja","nonstop":"Ja","open":"Mo,Di,Mi,Do: 6:45 - 16:30; Fr: 6:45 - 13:00","lunch":"Ja","info":"","summer":"Ja"},"gkz_41748":{"zip":4890,"name":"WeiÃŸenkirchen i.A.","category":"E","nanny":"Nein","creche":"Nein","afternoon":"Nein","nonstop":"Nein","open":"Mo,Di,Mi,Do,Fr: 7:30 - 13:00","lunch":"Nein","info":"","summer":"Nein"},"gkz_41749":{"zip":4852,"name":"Weyregg a.A.","category":"A","nanny":"Ja","creche":"Ja","afternoon":"Ja","nonstop":"Ja","open":"Mo,Di: 7:00 - 16:00; Mi,Do: 7:00 - 15:00; Fr: 7:00 - 13:00","lunch":"Ja","info":"Journaldienst in der ersten J&auml;nnerwoche, Osterferien, Pfingstdienstag und Allerseelen<br />","summer":"Ja"},"gkz_41750":{"zip":4902,"name":"Wolfsegg a.H.","category":"C","nanny":"Nein","creche":"Ja","afternoon":"Nein","nonstop":"Nein","open":"Mo,Fr: 7:15 - 13:30; Di,Mi,Do: 7:15 - 16:00","lunch":"Ja","info":"Kooperation Sommerbetreuung Kindergarten mit Schwanenstadt und V&ouml;cklabruck<br />","summer":"Ja"},"gkz_41751":{"zip":4893,"name":"Zell a. Moos","category":"A","nanny":"Ja","creche":"Ja","afternoon":"Ja","nonstop":"Ja","open":"Mo,Di,Mi,Do: 7:15 - 16:00; Fr: 7:15 - 12:45","lunch":"Ja","info":"","summer":"Nein"},"gkz_41752":{"zip":4840,"name":"Zell a. Pettenfirst","category":"A","nanny":"Nein","creche":"Ja","afternoon":"Ja","nonstop":"Ja","open":"Mo,Di,Mi,Do: 7:00 - 16:00; Fr: 7:00 - 13:00","lunch":"Ja","info":"","summer":"Nein"},"gkz_41801":{"zip":4671,"name":"Aichkirchen","category":"A","nanny":"Ja","creche":"Ja","afternoon":"Ja","nonstop":"Ja","open":"Mo: 7:00 - 15:00; Di,Mi: 7:00 - 16:00; Do: 7:00 - 16:30; Fr: 7:00 - 13:00","lunch":"Ja","info":"Kooperation Kindergarten mit Bachmanning<br />Kooperation Sommerbetreuung VS-Kinder mit Gunskirchen <br />","summer":"Nein"},"gkz_41802":{"zip":4672,"name":"Bachmanning","category":"A","nanny":"Nein","creche":"Ja","afternoon":"Ja","nonstop":"Ja","open":"Mo: 7:00 - 15:00; Di,Mi: 7:00 - 16:00; Do: 7:00 - 16:30; Fr: 7:00 - 13:00","lunch":"Ja","info":"Kooperation Sommerbetreuung Kindergarten mit Gunskirchen <br />Kooperation Sommerbetreuung VS-Kinder mit Gunskirchen <br />","summer":"Ja"},"gkz_41803":{"zip":4654,"name":"Bad Wimsbach-N.","category":"A","nanny":"Ja","creche":"Ja","afternoon":"Ja","nonstop":"Ja","open":"Mo,Di,Mi,Do,Fr: 7:00 - 16:00","lunch":"Ja","info":"","summer":"Ja"},"gkz_41804":{"zip":4611,"name":"Buchkirchen","category":"A","nanny":"Ja","creche":"Ja","afternoon":"Ja","nonstop":"Ja","open":"Mo,Di,Mi,Do: 7:30 - 16:00; Fr: 7:30 - 14:30","lunch":"Ja","info":"","summer":"Nein"},"gkz_41805":{"zip":4653,"name":"Eberstalzell","category":"1A","nanny":"Ja","creche":"Ja","afternoon":"Ja","nonstop":"Ja","open":"Mo,Di,Mi,Do: 6:45 - 16:30; Fr: 6:45 - 13:00","lunch":"Ja","info":"Journaldienst Unter-Dreij&auml;hrige in den Semester- und Osterferien und an Fenstertagen<br />Journaldienst Kindergarten in den Semester- und Osterferien und an Fenstertagen<br />","summer":"Ja"},"gkz_41806":{"zip":4650,"name":"Edt b. Lambach","category":"A","nanny":"Nein","creche":"Ja","afternoon":"Ja","nonstop":"Ja","open":"Mo,Di,Mi,Do: 7:00 - 15:00; Fr: 7:00 - 13:30","lunch":"Ja","info":"Kooperation Sommerbetreuung Kindergarten mit Fischlham<br />Kooperation NM-Betreuung VS-Kinder mit Lambach<br />","summer":"Ja"},"gkz_41807":{"zip":4652,"name":"Fischlham","category":"A","nanny":"Nein","creche":"Ja","afternoon":"Ja","nonstop":"Ja","open":"Mo,Di,Mi,Do: 7:00 - 15:30; Fr: 7:00 - 13:00","lunch":"Ja","info":"Kooperation Sommerbetreuung Unter-Dreij&auml;hrige mit Steinerkirchen a.d.T. <br />Kooperation Sommerbetreuung Kindergarten mit Bad Wimsbach-Neydharting und Steinerkirchen a.d.T. <br />Kooperation NM-Betreuung VS-Kinder mit Steinerkirchen a.d. T.; Kooperation Sommerbetreuung VS-Kinder mit Bad Wimsbach-Neydharting<br />","summer":"Ja"},"gkz_41808":{"zip":4623,"name":"Gunskirchen","category":"A","nanny":"Ja","creche":"Ja","afternoon":"Ja","nonstop":"Ja","open":"Mo,Di,Mi,Do,Fr: 7:00 - 16:00","lunch":"Ja","info":"Journaldienst Unter-Dreij&auml;hrige in den Semester-, Oster-, Weihnachtsferien und an Fenstertagen<br />Journaldienst Kindergarten in den Semester-, Oster-, Weihnachtsferien und an Fenstertagen<br />","summer":"Ja"},"gkz_41809":{"zip":4615,"name":"Holzhausen","category":"A","nanny":"Nein","creche":"Ja","afternoon":"Ja","nonstop":"Ja","open":"Mo,Di,Mi,Do: 7:00 - 15:15; Fr: 7:00 - 14:00","lunch":"Ja","info":"Kooperation Sommerbetreuung Unter-Dreij&auml;hrige mit Marchtrenk<br />Kooperation Sommerbetreuung Kindergarten mit Marchtrenk<br />Kooperation Sommerbetreuung VS-Kinder mit Marchtrenk; Journaldienst VS-Kinder in den Semesterferien<br />","summer":"Ja"},"gkz_41810":{"zip":4631,"name":"Krenglbach","category":"A","nanny":"Ja","creche":"Ja","afternoon":"Ja","nonstop":"Ja","open":"Mo,Di,Mi,Do: 6:45 - 16:00; Fr: 6:45 - 15:00","lunch":"Ja","info":"","summer":"Ja"},"gkz_41811":{"zip":4650,"name":"Lambach","category":"1A","nanny":"Ja","creche":"Ja","afternoon":"Ja","nonstop":"Ja","open":"Mo,Di,Mi,Do: 6:45 - 16:15; Fr: 6:45 - 14:45","lunch":"Ja","info":"","summer":"Nein"},"gkz_41812":{"zip":4614,"name":"Marchtrenk","category":"1A","nanny":"Ja","creche":"Ja","afternoon":"Ja","nonstop":"Ja","open":"Mo,Di,Mi,Do,Fr: 7:00 - 17:00","lunch":"Ja","info":"","summer":"Ja"},"gkz_41813":{"zip":4671,"name":"Neukirchen b.L.","category":"C","nanny":"Nein","creche":"Ja","afternoon":"Ja","nonstop":"Nein","open":"Mo,Di,Do: 7:00 - 16:00; Mi,Fr: 7:00 - 13:00","lunch":"Nein","info":"Kooperation Unter-Dreij&auml;hrige mit Aichkirchen<br />Mittagessen: Mo, Di, Do<br />","summer":"Nein"},"gkz_41814":{"zip":4625,"name":"Offenhausen","category":"A","nanny":"Nein","creche":"Ja","afternoon":"Ja","nonstop":"Ja","open":"Mo,Di,Mi,Do: 7:00 - 16:00; Fr: 7:00 - 13:00","lunch":"Ja","info":"Kooperation Sommerbetreuung Kindergarten mit Pennewang <br />","summer":"Ja"},"gkz_41815":{"zip":4624,"name":"Pennewang","category":"A","nanny":"Ja","creche":"Ja","afternoon":"Ja","nonstop":"Ja","open":"Mo,Di,Mi,Do: 7:30 - 16:30; Fr: 7:30 - 12:30","lunch":"Ja","info":"Unter-Dreij&auml;hrige ganzj&auml;hrig ge&ouml;ffnet<br />Kooperation Sommerbetreuung Kindergarten mit Offenhausen<br />Kooperation Sommerbetreuung VS-Kinder mit Offenhausen<br />","summer":"Ja"},"gkz_41816":{"zip":4632,"name":"Pichl b. Wels","category":"A","nanny":"Nein","creche":"Ja","afternoon":"Ja","nonstop":"Ja","open":"Mo,Di,Mi,Do: 7:00 - 16:30; Fr: 7:00 - 13:30","lunch":"Ja","info":"","summer":"Nein"},"gkz_41817":{"zip":4642,"name":"Sattledt","category":"A","nanny":"Ja","creche":"Ja","afternoon":"Ja","nonstop":"Ja","open":"Mo,Di,Mi,Do: 7:00 - 16:00; Fr: 7:00 - 12:30","lunch":"Ja","info":"","summer":"Ja"},"gkz_41818":{"zip":4600,"name":"SchleiÃŸheim","category":"A","nanny":"Nein","creche":"Ja","afternoon":"Ja","nonstop":"Ja","open":"Mo,Di,Mi,Do: 7:00 - 15:30; Fr: 7:00 - 14:00","lunch":"Ja","info":"Kooperation Kindergarten Sommerbetreuung mit Thalheim b.W.<br />","summer":"Ja"},"gkz_41819":{"zip":4621,"name":"Sipbachzell","category":"A","nanny":"Ja","creche":"Ja","afternoon":"Ja","nonstop":"Ja","open":"Mo,Di,Mi,Do: 7:00 - 16:00; Fr: 7:00 - 13:00","lunch":"Ja","info":"","summer":"Nein"},"gkz_41820":{"zip":4651,"name":"Stadl-Paura","category":"1A","nanny":"Ja","creche":"Ja","afternoon":"Ja","nonstop":"Ja","open":"Mo,Di,Mi,Do: 6:45 - 16:30; Fr: 6:45 - 13:30","lunch":"Ja","info":"Kooperation Sommerbetreuung Kindergarten mit Bad Wimsbach-Neydharting <br />","summer":"Ja"},"gkz_41821":{"zip":4652,"name":"Steinerkirchen a.d.T.","category":"A","nanny":"Nein","creche":"Ja","afternoon":"Ja","nonstop":"Ja","open":"Mo,Di,Mi,Do: 7:00 - 16:00; Fr: 7:00 - 13:00","lunch":"Ja","info":"Kooperation Sommerbetreuung Unter-Dreij&auml;hrige mit Fischlham<br />Kooperation Sommerbetreuung Kindergarten mit Fischlham<br />Kooperation Sommerbetreuung VS-Kinder mit Bad Wimsbach-Neydharting<br />","summer":"Ja"},"gkz_41822":{"zip":4641,"name":"Steinhaus","category":"A","nanny":"Nein","creche":"Ja","afternoon":"Ja","nonstop":"Ja","open":"Mo,Di,Mi,Do: 7:00 - 16:00; Fr: 7:00 - 13:00","lunch":"Ja","info":"Kooperation Sommerbetreuung Kindergarten mit Thalheim b.W.<br />","summer":"Ja"},"gkz_41823":{"zip":4600,"name":"Thalheim b.W.","category":"1A","nanny":"Ja","creche":"Ja","afternoon":"Ja","nonstop":"Ja","open":"Mo,Di,Mi,Do: 6:45 - 17:00; Fr: 6:45 - 14:00","lunch":"Ja","info":"Journaldienst Unter-Dreij&auml;hrige in den Semester- und Osterferien und an Fenstertagen<br />Kooperation Sommerbetreuung Kindergarten mit Schlei&szlig;heim und Steinhaus<br />","summer":"Ja"},"gkz_41824":{"zip":4616,"name":"WeiÃŸkirchen a.d.T.","category":"1A","nanny":"Ja","creche":"Ja","afternoon":"Ja","nonstop":"Ja","open":"Mo,Di,Mi,Do: 7:00 - 17:00; Fr: 7:00 - 16:00","lunch":"Ja","info":"Journaldienst VS-Kinder in den Semester-, Oster-, Weihnachtsferien und an Fenstertagen<br />","summer":"Nein"}}}